{"type":"FeatureCollection", "features": [
{"type":"Feature","geometry":{"type":"MultiPolygon","coordinates":[[[[105,8.61],[105,9.87],[104.85,9.61],[104.82,8.8],[104.77,8.6],[105,8.61]]],[[[105,10.08],[105,10.67],[104.82,10.52],[104.56,10.52],[104.43,10.41],[104.66,10.17],[104.8,10.2],[105,10.08]]],[[[105,18.73],[105,23.2],[104.83,23.1],[104.8,22.91],[104.37,22.7],[104.21,22.81],[104.05,22.75],[103.92,22.54],[103.62,22.78],[103.47,22.6],[103.36,22.75],[103.01,22.45],[102.52,22.74],[102.43,22.73],[102.13,22.38],[102.58,21.9],[102.7,21.66],[102.85,21.73],[102.95,21.57],[102.85,21.27],[103.1,20.89],[103.64,20.7],[104.05,20.94],[104.2,20.91],[104.58,20.65],[104.39,20.42],[104.62,20.37],[104.7,20.21],[104.89,20.17],[104.93,20.02],[104.74,19.75],[104.55,19.61],[104.26,19.69],[104.03,19.68],[104.06,19.48],[103.9,19.34],[104.72,18.8],[105,18.73]]]]},"properties":{"name":"Vietnam"}},
{"type":"Feature","geometry":{"type":"MultiPolygon","coordinates":[[[[70.83,42],[70.29,42],[70.1,41.82],[69.66,41.67],[69.06,41.37],[68.99,41.21],[68.58,40.88],[68.6,40.66],[68.29,40.66],[68.05,40.81],[68.11,41.03],[67.94,41.2],[66.81,41.14],[66.67,41.27],[66.5,41.99],[66.25,42],[59.95,42],[60.19,41.83],[60.08,41.7],[60.09,41.4],[60.45,41.22],[60.75,41.25],[61.33,41.2],[61.5,41.28],[61.8,41.16],[61.95,41.03],[62.1,40.68],[62.38,40.33],[62.44,40.04],[62.65,39.86],[63.51,39.38],[63.72,39.19],[64.16,38.95],[64.31,38.98],[64.66,38.74],[65.61,38.24],[65.86,38.27],[66.17,38.17],[66.63,37.93],[66.53,37.79],[66.52,37.35],[67.07,37.33],[67.32,37.21],[67.52,37.27],[67.76,37.17],[67.81,37.49],[68.29,38.03],[68.33,38.24],[68.14,38.38],[68.05,38.67],[68.1,38.96],[67.68,39.01],[67.62,39.15],[67.35,39.24],[67.43,39.47],[67.72,39.62],[68.46,39.54],[68.64,39.84],[68.87,39.91],[68.65,40.18],[69.23,40.19],[69.3,40.33],[69.21,40.57],[69.41,40.8],[69.71,40.66],[70.29,40.89],[70.44,41.02],[70.75,40.74],[70.38,40.45],[70.65,40.2],[70.96,40.24],[71.3,40.29],[71.69,40.15],[71.96,40.26],[72.13,40.44],[72.36,40.4],[73.11,40.79],[72.99,40.86],[72.62,40.88],[72.16,41.17],[71.88,41.2],[71.79,41.41],[71.42,41.34],[71.41,41.14],[71.11,41.15],[70.78,41.26],[70.65,41.46],[70.47,41.41],[70.18,41.57],[70.83,42]]],[[[57.15,42],[55.98,42],[55.98,41.32],[57.02,41.26],[56.96,41.86],[57.15,42]]]]},"properties":{"name":"Uzbekistan"}},
{"type":"Feature","geometry":{"type":"Polygon","coordinates":[[[56.3,25.65],[56.14,25.69],[56.17,26.05],[56.08,26.06],[55.94,25.79],[55.52,25.5],[55.3,25.24],[55,24.98],[55,22.63],[55.19,22.7],[55.2,23.03],[55.51,23.72],[55.55,23.99],[55.99,24.06],[55.93,24.22],[55.76,24.24],[55.8,24.87],[55.92,24.97],[56.06,24.74],[56.39,24.98],[56.36,25.57],[56.3,25.65]]]},"properties":{"name":"United Arab Emirates"}},
{"type":"Feature","geometry":{"type":"Polygon","coordinates":[[[55.98,41.32],[55.55,41.26],[55.25,41.46],[55,41.76],[55,37.85],[55.38,38.05],[55.58,38.1],[56.23,38.07],[56.44,38.25],[57.19,38.22],[57.42,37.95],[57.71,37.91],[58.44,37.64],[58.82,37.68],[59.24,37.52],[59.56,37.18],[60.06,36.96],[60.34,36.64],[61.12,36.64],[61.25,35.87],[61.26,35.62],[61.54,35.46],[61.98,35.44],[62.25,35.25],[62.61,35.23],[63.06,35.45],[63.17,35.68],[63.11,35.82],[63.86,36.01],[64.36,36.23],[64.51,36.34],[64.82,37.13],[65.09,37.24],[65.55,37.25],[65.77,37.57],[66.11,37.41],[66.52,37.35],[66.53,37.79],[66.63,37.93],[66.17,38.17],[65.86,38.27],[65.61,38.24],[64.66,38.74],[64.31,38.98],[64.16,38.95],[63.72,39.19],[63.51,39.38],[62.65,39.86],[62.44,40.04],[62.38,40.33],[62.1,40.68],[61.95,41.03],[61.8,41.16],[61.5,41.28],[61.33,41.2],[60.75,41.25],[60.45,41.22],[60.09,41.4],[60.08,41.7],[60.19,41.83],[59.95,42],[57.15,42],[56.96,41.86],[57.02,41.26],[55.98,41.32]]]},"properties":{"name":"Turkmenistan"}},
{"type":"Feature","geometry":{"type":"Polygon","coordinates":[[[100.12,20.32],[99.89,20.42],[99.64,20.32],[99.34,20.08],[99.02,20.04],[98.92,19.77],[98.24,19.69],[98.11,19.76],[97.82,19.46],[97.8,19.13],[97.71,18.93],[97.75,18.62],[97.48,18.49],[97.72,18.04],[97.7,17.83],[97.79,17.68],[98.26,17.15],[98.44,16.98],[98.48,16.73],[98.69,16.31],[98.82,16.18],[98.59,16.05],[98.57,15.4],[98.19,15.2],[98.25,14.81],[98.57,14.36],[98.93,14.05],[99.14,13.72],[99.18,13.23],[99.11,13.1],[99.22,12.74],[99.41,12.55],[99.46,12.19],[99.61,11.78],[99.48,11.61],[99.19,11.11],[98.76,10.66],[98.77,10.43],[98.7,10.19],[98.49,9.56],[98.37,9.29],[98.33,8.97],[98.24,8.77],[98.24,8.42],[98.31,8.23],[98.42,8.18],[98.58,8.34],[98.79,8.06],[99.05,7.89],[99.3,7.56],[99.36,7.37],[99.53,7.33],[99.72,7.11],[99.7,6.88],[99.87,6.75],[100.12,6.44],[100.18,6.67],[100.35,6.55],[100.79,6.43],[100.87,6.25],[101.05,6.24],[101.08,5.96],[100.98,5.77],[101.11,5.64],[101.26,5.79],[101.56,5.91],[101.65,5.8],[101.87,5.83],[102.1,6.24],[101.8,6.47],[101.5,6.87],[101.3,6.91],[101.02,6.86],[100.59,7.18],[100.42,7.19],[100.2,7.5],[100.45,7.44],[100.28,8.27],[99.96,8.67],[99.9,9.11],[99.72,9.31],[99.39,9.21],[99.16,9.73],[99.19,10.18],[99.17,10.32],[99.49,10.89],[99.63,11.46],[99.8,11.75],[99.84,11.94],[99.99,12.17],[99.96,12.69],[100.09,13.05],[100.02,13.35],[100.24,13.48],[100.66,13.52],[100.96,13.43],[100.86,12.71],[101.44,12.62],[101.72,12.69],[102.03,12.53],[102.23,12.33],[102.54,12.11],[102.76,12.01],[102.93,11.71],[102.74,12.09],[102.76,12.43],[102.5,12.67],[102.46,13.02],[102.33,13.29],[102.32,13.54],[102.54,13.66],[102.73,13.84],[102.91,14.14],[103.2,14.33],[103.6,14.42],[103.82,14.36],[104.23,14.4],[104.41,14.37],[104.78,14.43],[105,14.26],[105,16.27],[104.82,16.47],[104.75,16.65],[104.76,17.08],[104.82,17.3],[104.74,17.46],[104.43,17.7],[103.95,18.32],[103.37,18.42],[103.15,18.22],[103.05,18.03],[102.72,17.89],[102.35,18.05],[102.1,18.21],[101.77,18.03],[101.69,17.89],[101.11,17.48],[100.91,17.58],[101.11,18.03],[101.14,18.29],[101.05,18.41],[101.29,18.98],[101.15,19.58],[100.97,19.61],[100.63,19.5],[100.42,19.64],[100.4,19.76],[100.54,20.09],[100.32,20.39],[100.12,20.32]]]},"properties":{"name":"Thailand"}},
{"type":"Feature","geometry":{"type":"Polygon","coordinates":[[[67.76,37.17],[68.07,36.95],[68.67,37.26],[68.96,37.33],[69.26,37.11],[69.41,37.21],[69.49,37.55],[70.25,37.66],[70.21,37.92],[70.42,38.08],[70.62,38.33],[70.88,38.46],[71.26,38.31],[71.33,38.17],[71.28,37.92],[71.55,37.93],[71.43,37.13],[71.6,36.73],[71.8,36.69],[72.36,36.98],[72.66,37.03],[72.9,37.27],[73.48,37.47],[73.72,37.42],[73.75,37.23],[74.17,37.33],[74.26,37.42],[74.66,37.39],[74.89,37.23],[75.12,37.39],[74.89,37.6],[74.94,37.77],[74.79,38.1],[74.84,38.4],[74.75,38.51],[74.28,38.66],[74.03,38.54],[73.8,38.61],[73.7,38.85],[73.8,39],[73.61,39.23],[73.63,39.45],[73.23,39.37],[72.64,39.39],[72.36,39.34],[72.23,39.21],[72.04,39.35],[71.81,39.28],[71.73,39.42],[71.4,39.6],[70.73,39.41],[70.61,39.56],[70.24,39.54],[69.6,39.57],[69.3,39.52],[69.23,39.76],[69.43,39.91],[69.53,40.1],[69.97,40.2],[70.45,40.05],[70.96,40.24],[70.65,40.2],[70.38,40.45],[70.75,40.74],[70.44,41.02],[70.29,40.89],[69.71,40.66],[69.41,40.8],[69.21,40.57],[69.3,40.33],[69.23,40.19],[68.65,40.18],[68.87,39.91],[68.64,39.84],[68.46,39.54],[67.72,39.62],[67.43,39.47],[67.35,39.24],[67.62,39.15],[67.68,39.01],[68.1,38.96],[68.05,38.67],[68.14,38.38],[68.33,38.24],[68.29,38.03],[67.81,37.49],[67.76,37.17]]]},"properties":{"name":"Tajikistan"}},
{"type":"Feature","geometry":{"type":"Polygon","coordinates":[[[79.98,9.81],[80.09,9.58],[80.12,9.33],[80.06,9.1],[79.93,8.9],[79.94,8.69],[79.85,8.41],[79.81,8.05],[79.71,8.07],[79.79,7.59],[79.86,6.83],[80.1,6.15],[80.27,6.01],[80.5,5.95],[80.72,5.98],[81.38,6.24],[81.64,6.43],[81.77,6.61],[81.86,6.9],[81.87,7.29],[81.67,7.78],[81.44,8.12],[81.37,8.43],[81.23,8.51],[81.2,8.66],[80.71,9.37],[80.38,9.64],[80.25,9.8],[79.98,9.81]]]},"properties":{"name":"Sri Lanka"}},
{"type":"Feature","geometry":null,"properties":{"name":"Singapore"}},
{"type":"Feature","geometry":{"type":"Polygon","coordinates":[[[55,22.63],[55,20.06],[55.39,21.24],[55.64,22],[55.19,22.7],[55,22.63]]]},"properties":{"name":"Saudi Arabia"}},
{"type":"Feature","geometry":{"type":"Polygon","coordinates":[[[76.77,35.66],[76.56,35.77],[76.25,35.81],[75.95,36.02],[75.97,36.38],[75.84,36.65],[75.67,36.74],[75.42,36.74],[75.35,36.91],[75.05,36.99],[74.89,36.95],[74.54,37.02],[74,36.82],[73.77,36.89],[72.62,36.83],[72.16,36.7],[71.82,36.49],[71.62,36.44],[71.19,36.04],[71.43,35.83],[71.6,35.41],[71.62,35.18],[70.97,34.53],[71.1,34.37],[71.05,34.05],[70.85,33.98],[70.42,33.95],[69.99,34.05],[69.87,33.9],[70.06,33.72],[70.28,33.37],[70.26,33.29],[69.92,33.11],[69.5,33.02],[69.41,32.68],[69.24,32.43],[69.28,31.94],[69.08,31.74],[68.87,31.63],[68.6,31.8],[68.21,31.81],[68.02,31.68],[67.58,31.51],[67.74,31.34],[67.29,31.22],[66.92,31.31],[66.73,31.19],[66.57,31],[66.4,30.91],[66.29,30.61],[66.31,30.32],[66.18,29.84],[65.1,29.56],[64.52,29.56],[64.27,29.51],[64.1,29.39],[63.57,29.5],[62.48,29.41],[62.37,29.43],[60.84,29.86],[61.32,29.37],[61.34,29.26],[61.62,28.79],[61.89,28.55],[62.35,28.41],[62.56,28.24],[62.76,28.2],[62.74,28],[62.81,27.5],[62.76,27.25],[63.17,27.25],[63.25,26.88],[63.17,26.67],[62.79,26.64],[62.44,26.56],[62.24,26.36],[61.87,26.24],[61.75,25.84],[61.67,25.77],[61.59,25.2],[61.74,25.14],[62.32,25.13],[62.57,25.25],[63.49,25.21],[63.72,25.39],[64.15,25.33],[64.66,25.18],[64.78,25.31],[65.41,25.37],[65.68,25.36],[66.13,25.49],[66.22,25.59],[66.43,25.58],[66.7,25.23],[66.7,24.86],[67.17,24.76],[67.31,24.17],[67.67,23.81],[68.17,23.86],[68.28,23.93],[68.72,23.96],[68.73,24.27],[69.56,24.27],[69.72,24.17],[70.02,24.19],[70.1,24.29],[70.55,24.42],[70.72,24.24],[71.04,24.4],[71.05,24.69],[70.88,25.06],[70.65,25.42],[70.65,25.67],[70.26,25.71],[70.1,25.91],[70.08,26.07],[70.16,26.47],[70.06,26.58],[69.74,26.63],[69.47,26.8],[69.57,27.17],[69.9,27.47],[70.14,27.85],[70.4,28.03],[70.63,27.94],[70.74,27.73],[70.87,27.71],[71.18,27.83],[71.54,27.87],[71.87,27.96],[71.95,28.18],[72.18,28.42],[72.34,28.75],[72.9,29.03],[73.23,29.55],[73.38,29.93],[73.81,30.09],[73.93,30.22],[73.9,30.44],[74.22,30.77],[74.63,31.03],[74.52,31.19],[74.59,31.47],[74.51,31.71],[74.74,31.95],[75.25,32.14],[75.33,32.28],[74.99,32.46],[74.66,32.52],[74.66,32.76],[74.35,32.77],[74.3,32.99],[73.99,33.24],[74.15,33.51],[74,33.63],[74,33.79],[74.25,33.99],[73.95,34.02],[73.98,34.19],[73.81,34.33],[73.96,34.65],[74.3,34.77],[74.95,34.65],[75.19,34.64],[75.71,34.5],[76.04,34.67],[76.46,34.76],[76.59,34.74],[77,34.99],[77.05,35.11],[76.77,35.66]]]},"properties":{"name":"Pakistan"}},
{"type":"Feature","geometry":{"type":"MultiPolygon","coordinates":[[[[55,20.06],[55,17.02],[55.17,17.16],[55.3,17.38],[55.26,17.59],[55.48,17.84],[55.61,17.89],[56.27,17.95],[56.55,18.17],[56.66,18.59],[56.83,18.75],[57.18,18.9],[57.68,18.96],[57.81,19.02],[57.72,19.61],[57.86,20.24],[58.1,20.57],[58.21,20.42],[58.47,20.41],[58.9,21.11],[59.37,21.5],[59.8,22.22],[59.82,22.51],[59.54,22.58],[59.03,23.13],[58.77,23.52],[58.58,23.64],[58.32,23.62],[58.12,23.72],[57.61,23.8],[57.22,23.92],[56.91,24.15],[56.64,24.47],[56.39,24.98],[56.06,24.74],[55.92,24.97],[55.8,24.87],[55.76,24.24],[55.93,24.22],[55.99,24.06],[55.55,23.99],[55.51,23.72],[55.2,23.03],[55.19,22.7],[55.64,22],[55.39,21.24],[55,20.06]]],[[[56.3,25.65],[56.37,25.8],[56.43,26.33],[56.16,26.21],[56.08,26.06],[56.17,26.05],[56.14,25.69],[56.3,25.65]]]]},"properties":{"name":"Oman"}},
{"type":"Feature","geometry":{"type":"Polygon","coordinates":[[[88.11,27.87],[87.68,27.82],[87.14,27.84],[87.02,27.93],[86.55,28.09],[86.41,27.93],[86.08,28.08],[85.95,27.93],[85.68,28.28],[85.12,28.32],[85.16,28.59],[84.71,28.6],[84.23,28.91],[84.1,29.22],[83.94,29.28],[83.58,29.18],[83.16,29.61],[82.85,29.68],[82.49,29.94],[82.16,30.12],[82.04,30.33],[81.64,30.39],[81.42,30.34],[81.26,30.09],[81.01,30.16],[80.91,30.17],[80.55,29.9],[80.4,29.73],[80.25,29.42],[80.23,29.19],[80.13,29.1],[80.07,28.83],[80.42,28.61],[80.59,28.65],[81.17,28.34],[81.31,28.18],[81.85,27.87],[81.99,27.91],[82.45,27.67],[82.68,27.67],[82.73,27.52],[83.29,27.37],[83.45,27.47],[83.83,27.38],[84.09,27.49],[84.61,27.3],[84.69,27.04],[85.29,26.74],[85.57,26.84],[85.74,26.64],[86.01,26.65],[86.37,26.57],[86.7,26.44],[87.02,26.56],[87.29,26.36],[88.05,26.43],[88.16,26.72],[87.98,27.13],[88.02,27.41],[88.15,27.75],[88.11,27.87]]]},"properties":{"name":"Nepal"}},
{"type":"Feature","geometry":{"type":"Polygon","coordinates":[[[105,41.6],[105,42],[103.09,42],[103.71,41.75],[104.5,41.88],[104.5,41.66],[105,41.6]]]},"properties":{"name":"Mongolia"}},
{"type":"Feature","geometry":null,"properties":{"name":"Maldives"}},
{"type":"Feature","geometry":{"type":"Polygon","coordinates":[[[100.12,6.44],[100.34,5.98],[100.35,5.59],[100.47,5.04],[100.61,4.65],[100.61,4.37],[100.8,4.02],[100.72,3.97],[101.02,3.62],[101.3,3.25],[101.35,3.01],[101.3,2.89],[101.52,2.68],[101.78,2.57],[102.15,2.25],[102.55,2.04],[102.73,1.86],[103.36,1.55],[103.48,1.33],[103.69,1.45],[103.99,1.45],[104.18,1.36],[104.29,1.48],[104.22,1.72],[103.81,2.58],[103.54,2.77],[103.44,2.93],[103.45,3.52],[103.36,3.77],[103.47,4.39],[103.42,4.85],[103.2,5.26],[102.98,5.52],[102.53,5.86],[102.34,6.17],[102.1,6.24],[101.87,5.83],[101.65,5.8],[101.56,5.91],[101.26,5.79],[101.11,5.64],[100.98,5.77],[101.08,5.96],[101.05,6.24],[100.87,6.25],[100.79,6.43],[100.35,6.55],[100.18,6.67],[100.12,6.44]]]},"properties":{"name":"Malaysia"}},
{"type":"Feature","geometry":{"type":"Polygon","coordinates":[[[102.13,22.38],[101.84,22.39],[101.67,22.46],[101.52,22.25],[101.6,21.99],[101.74,21.83],[101.7,21.15],[101.54,21.23],[101.22,21.22],[101.14,21.57],[100.93,21.37],[100.76,21.31],[100.54,20.99],[100.57,20.83],[100.25,20.73],[100.12,20.32],[100.32,20.39],[100.54,20.09],[100.4,19.76],[100.42,19.64],[100.63,19.5],[100.97,19.61],[101.15,19.58],[101.29,18.98],[101.05,18.41],[101.14,18.29],[101.11,18.03],[100.91,17.58],[101.11,17.48],[101.69,17.89],[101.77,18.03],[102.1,18.21],[102.35,18.05],[102.72,17.89],[103.05,18.03],[103.15,18.22],[103.37,18.42],[103.95,18.32],[104.43,17.7],[104.74,17.46],[104.82,17.3],[104.76,17.08],[104.75,16.65],[104.82,16.47],[105,16.27],[105,18.73],[104.72,18.8],[103.9,19.34],[104.06,19.48],[104.03,19.68],[104.26,19.69],[104.55,19.61],[104.74,19.75],[104.93,20.02],[104.89,20.17],[104.7,20.21],[104.62,20.37],[104.39,20.42],[104.58,20.65],[104.2,20.91],[104.05,20.94],[103.64,20.7],[103.1,20.89],[102.85,21.27],[102.95,21.57],[102.85,21.73],[102.7,21.66],[102.58,21.9],[102.13,22.38]]]},"properties":{"name":"Laos"}},
{"type":"Feature","geometry":{"type":"Polygon","coordinates":[[[70.96,40.24],[70.45,40.05],[69.97,40.2],[69.53,40.1],[69.43,39.91],[69.23,39.76],[69.3,39.52],[69.6,39.57],[70.24,39.54],[70.61,39.56],[70.73,39.41],[71.4,39.6],[71.73,39.42],[71.81,39.28],[72.04,39.35],[72.23,39.21],[72.36,39.34],[72.64,39.39],[73.23,39.37],[73.63,39.45],[73.91,39.61],[73.84,39.8],[73.99,40.04],[74.41,40.14],[75,40.45],[75.58,40.61],[75.66,40.33],[75.87,40.3],[76.48,40.45],[76.82,40.98],[76.99,41.04],[77.58,40.99],[78.12,41.08],[78.36,41.37],[79.29,41.78],[79.77,41.9],[79.86,42],[70.83,42],[70.18,41.57],[70.47,41.41],[70.65,41.46],[70.78,41.26],[71.11,41.15],[71.41,41.14],[71.42,41.34],[71.79,41.41],[71.88,41.2],[72.16,41.17],[72.62,40.88],[72.99,40.86],[73.11,40.79],[72.36,40.4],[72.13,40.44],[71.96,40.26],[71.69,40.15],[71.3,40.29],[70.96,40.24]]]},"properties":{"name":"Kyrgyzstan"}},
{"type":"Feature","geometry":{"type":"MultiPolygon","coordinates":[[[[55.98,42],[55,42],[55,41.76],[55.25,41.46],[55.55,41.26],[55.98,41.32],[55.98,42]]],[[[70.29,42],[66.25,42],[66.5,41.99],[66.67,41.27],[66.81,41.14],[67.94,41.2],[68.11,41.03],[68.05,40.81],[68.29,40.66],[68.6,40.66],[68.58,40.88],[68.99,41.21],[69.06,41.37],[69.66,41.67],[70.1,41.82],[70.29,42]]]]},"properties":{"name":"Kazakhstan"}},
{"type":"Feature","geometry":{"type":"MultiPolygon","coordinates":[[[[55,37.85],[55,26.62],[55.29,26.79],[55.42,26.77],[55.65,26.98],[55.94,27.04],[56.36,27.2],[56.81,27.09],[56.98,26.91],[57.07,26.68],[57.1,26.37],[57.21,26.04],[57.33,25.79],[57.73,25.72],[57.8,25.65],[58.31,25.58],[58.8,25.55],[59.05,25.42],[59.46,25.48],[59.62,25.4],[60.02,25.38],[60.4,25.31],[60.51,25.44],[60.66,25.28],[61.41,25.1],[61.59,25.2],[61.67,25.77],[61.75,25.84],[61.87,26.24],[62.24,26.36],[62.44,26.56],[62.79,26.64],[63.17,26.67],[63.25,26.88],[63.17,27.25],[62.76,27.25],[62.81,27.5],[62.74,28],[62.76,28.2],[62.56,28.24],[62.35,28.41],[61.89,28.55],[61.62,28.79],[61.34,29.26],[61.32,29.37],[60.84,29.86],[61.78,30.83],[61.81,31.07],[61.66,31.38],[60.85,31.48],[60.79,31.66],[60.83,32.25],[60.58,32.99],[60.56,33.14],[60.92,33.51],[60.51,33.64],[60.49,34.09],[60.64,34.31],[60.89,34.32],[60.73,34.52],[60.95,34.65],[61.08,34.86],[61.26,35.62],[61.25,35.87],[61.12,36.64],[60.34,36.64],[60.06,36.96],[59.56,37.18],[59.24,37.52],[58.82,37.68],[58.44,37.64],[57.71,37.91],[57.42,37.95],[57.19,38.22],[56.44,38.25],[56.23,38.07],[55.58,38.1],[55.38,38.05],[55,37.85]]],[[[56.19,26.92],[56.07,26.98],[55.76,26.81],[55.95,26.7],[56.19,26.92]]]]},"properties":{"name":"Iran"}},
{"type":"Feature","geometry":{"type":"MultiPolygon","coordinates":[[[[97.48,1.47],[97.24,1.42],[97.41,0.95],[97.6,0.83],[97.68,0.6],[97.88,0.63],[97.93,0.97],[97.7,1.18],[97.48,1.47]]],[[[99.16,-1.78],[99.27,-1.63],[98.87,-0.92],[98.68,-0.97],[98.6,-1.2],[98.87,-1.66],[99.16,-1.78]]],[[[96.49,5.23],[96.13,5.29],[95.84,5.51],[95.63,5.61],[95.4,5.63],[95.23,5.56],[95.21,5.28],[95.49,4.76],[95.99,4.26],[96.23,4.07],[96.44,3.82],[96.8,3.71],[96.97,3.58],[97.39,2.98],[97.59,2.85],[97.7,2.36],[98.01,2.24],[98.56,1.9],[98.8,1.49],[99.16,0.35],[99.33,0.21],[99.6,0.1],[99.86,-0.31],[100.31,-0.83],[100.49,-1.3],[100.86,-1.93],[100.85,-2],[104.7,-2],[104.52,-1.82],[104.45,-1.36],[104.36,-1.04],[104.2,-1.05],[103.72,-0.89],[103.53,-0.75],[103.43,-0.53],[103.43,-0.19],[103.79,0.05],[103.67,0.29],[103.48,0.48],[103.07,0.49],[102.85,0.72],[102.47,0.78],[102.24,0.99],[102.16,1.26],[102.02,1.44],[101.78,1.62],[101.48,1.69],[101.3,2.01],[101.05,2.26],[100.83,2.24],[100.69,2.12],[100.46,2.26],[100.13,2.65],[99.91,2.99],[99.73,3.18],[99.15,3.58],[98.78,3.76],[98.66,3.93],[98.31,4.09],[98.25,4.41],[98.02,4.64],[97.91,4.88],[97.55,5.21],[97.19,5.21],[96.84,5.27],[96.49,5.23]]],[[[101.71,2.08],[101.41,2.02],[101.47,1.76],[101.6,1.72],[101.77,1.94],[101.71,2.08]]],[[[102.43,0.99],[102.44,1.23],[102.23,1.35],[102.33,1.01],[102.43,0.99]]],[[[102.49,1.46],[102.47,1.51],[102.04,1.63],[102.08,1.5],[102.49,1.46]]],[[[103.03,0.75],[103,0.86],[102.55,1.13],[102.45,0.89],[102.54,0.83],[103.03,0.75]]],[[[104.59,1.22],[104.36,1.18],[104.25,1.01],[104.58,0.83],[104.65,0.96],[104.59,1.22]]],[[[104.78,-0.18],[104.54,0.02],[104.45,-0.19],[104.57,-0.25],[104.78,-0.18]]],[[[104.47,-0.33],[104.26,-0.46],[104.49,-0.61],[104.59,-0.47],[104.47,-0.33]]],[[[98.46,-0.53],[98.54,-0.26],[98.43,-0.23],[98.31,-0.53],[98.46,-0.53]]],[[[96.46,2.36],[96.42,2.52],[95.81,2.92],[95.72,2.83],[95.81,2.66],[96.02,2.6],[96.46,2.36]]]]},"properties":{"name":"Indonesia"}},
{"type":"Feature","geometry":{"type":"Polygon","coordinates":[[[105,23.2],[105,41.6],[104.5,41.66],[104.5,41.88],[103.71,41.75],[103.09,42],[79.86,42],[79.77,41.9],[79.29,41.78],[78.36,41.37],[78.12,41.08],[77.58,40.99],[76.99,41.04],[76.82,40.98],[76.48,40.45],[75.87,40.3],[75.66,40.33],[75.58,40.61],[75,40.45],[74.41,40.14],[73.99,40.04],[73.84,39.8],[73.91,39.61],[73.63,39.45],[73.61,39.23],[73.8,39],[73.7,38.85],[73.8,38.61],[74.03,38.54],[74.28,38.66],[74.75,38.51],[74.84,38.4],[74.79,38.1],[74.94,37.77],[74.89,37.6],[75.12,37.39],[74.89,37.23],[74.73,37.29],[74.37,37.16],[74.54,37.02],[74.89,36.95],[75.05,36.99],[75.35,36.91],[75.42,36.74],[75.67,36.74],[75.84,36.65],[75.97,36.38],[75.95,36.02],[76.25,35.81],[76.56,35.77],[76.77,35.66],[77.45,35.48],[77.8,35.5],[78.05,35.45],[78.01,35.25],[78.28,34.65],[78.67,34.52],[78.94,34.35],[78.97,34.23],[78.75,34.09],[78.8,33.5],[79.11,33.23],[79.2,32.95],[79.22,32.5],[78.92,32.36],[78.7,32.6],[78.39,32.52],[78.5,32.22],[78.74,31.96],[78.69,31.74],[78.8,31.62],[78.73,31.47],[78.79,31.29],[79.11,31.4],[79.34,31.11],[79.57,30.95],[79.79,30.97],[80.19,30.76],[80.19,30.57],[80.68,30.41],[81.01,30.16],[81.26,30.09],[81.42,30.34],[81.64,30.39],[82.04,30.33],[82.16,30.12],[82.49,29.94],[82.85,29.68],[83.16,29.61],[83.58,29.18],[83.94,29.28],[84.1,29.22],[84.23,28.91],[84.71,28.6],[85.16,28.59],[85.12,28.32],[85.68,28.28],[85.95,27.93],[86.08,28.08],[86.41,27.93],[86.55,28.09],[87.02,27.93],[87.14,27.84],[87.68,27.82],[88.11,27.87],[88.11,27.93],[88.62,28.09],[88.8,28.01],[88.85,27.87],[88.75,27.52],[88.89,27.32],[88.95,27.46],[89.54,28.11],[89.98,28.31],[90.35,28.24],[90.35,28.08],[90.72,28.07],[91.08,27.97],[91.23,28.07],[91.61,27.95],[91.63,27.76],[91.98,27.73],[92.1,27.81],[92.41,27.82],[92.66,27.95],[92.7,28.15],[93.12,28.4],[93.21,28.59],[93.66,28.69],[93.9,28.8],[94.29,29.14],[94.62,29.31],[94.77,29.18],[95.42,29.05],[95.52,29.21],[96.04,29.45],[96.23,29.25],[96.12,29.08],[96.16,28.91],[96.44,29.05],[96.58,28.76],[96.28,28.43],[96.6,28.46],[96.78,28.37],[97.08,28.37],[97.32,28.22],[97.54,28.51],[97.86,28.36],[98.1,28.14],[98.3,27.55],[98.5,27.65],[98.65,27.57],[98.72,27.04],[98.73,26.58],[98.65,25.92],[98.47,25.79],[98.33,25.59],[98.17,25.59],[98.01,25.29],[97.82,25.25],[97.71,25.03],[97.72,24.84],[97.58,24.77],[97.53,24.49],[97.67,24.38],[97.69,23.9],[98.21,24.11],[98.76,24.12],[98.68,23.84],[98.83,23.62],[98.86,23.19],[99.34,23.1],[99.51,22.96],[99.39,22.83],[99.34,22.5],[99.19,22.13],[99.92,22.03],[99.93,21.82],[100.21,21.46],[100.53,21.46],[100.84,21.66],[101.12,21.75],[101.14,21.57],[101.22,21.22],[101.54,21.23],[101.7,21.15],[101.74,21.83],[101.6,21.99],[101.52,22.25],[101.67,22.46],[101.84,22.39],[102.13,22.38],[102.43,22.73],[102.52,22.74],[103.01,22.45],[103.36,22.75],[103.47,22.6],[103.62,22.78],[103.92,22.54],[104.05,22.75],[104.21,22.81],[104.37,22.7],[104.8,22.91],[104.83,23.1],[105,23.2]]]},"properties":{"name":"China"}},
{"type":"Feature","geometry":{"type":"Polygon","coordinates":[[[105,10.67],[105,14.26],[104.78,14.43],[104.41,14.37],[104.23,14.4],[103.82,14.36],[103.6,14.42],[103.2,14.33],[102.91,14.14],[102.73,13.84],[102.54,13.66],[102.32,13.54],[102.33,13.29],[102.46,13.02],[102.5,12.67],[102.76,12.43],[102.74,12.09],[102.93,11.71],[103.13,11.46],[103.09,11.21],[103.15,10.91],[103.35,10.92],[103.53,11.15],[103.72,10.89],[103.53,10.6],[103.66,10.51],[103.94,10.59],[104.26,10.54],[104.43,10.41],[104.56,10.52],[104.82,10.52],[105,10.67]]]},"properties":{"name":"Cambodia"}},
{"type":"Feature","geometry":{"type":"MultiPolygon","coordinates":[[[[100.12,20.32],[100.25,20.73],[100.57,20.83],[100.54,20.99],[100.76,21.31],[100.93,21.37],[101.14,21.57],[101.12,21.75],[100.84,21.66],[100.53,21.46],[100.21,21.46],[99.93,21.82],[99.92,22.03],[99.19,22.13],[99.34,22.5],[99.39,22.83],[99.51,22.96],[99.34,23.1],[98.86,23.19],[98.83,23.62],[98.68,23.84],[98.76,24.12],[98.21,24.11],[97.69,23.9],[97.67,24.38],[97.53,24.49],[97.58,24.77],[97.72,24.84],[97.71,25.03],[97.82,25.25],[98.01,25.29],[98.17,25.59],[98.33,25.59],[98.47,25.79],[98.65,25.92],[98.73,26.58],[98.72,27.04],[98.65,27.57],[98.5,27.65],[98.3,27.55],[98.1,28.14],[97.86,28.36],[97.54,28.51],[97.32,28.22],[97.34,27.94],[96.9,27.64],[96.9,27.44],[97.1,27.16],[96.88,27.18],[96.67,27.34],[96.06,27.22],[95.91,27.05],[95.46,26.76],[95.13,26.6],[95.06,26.47],[95.13,26.04],[94.99,25.77],[94.79,25.52],[94.62,25.41],[94.55,25.24],[94.71,25.05],[94.58,24.77],[94.29,24.32],[94.13,23.88],[93.68,24.01],[93.31,24.02],[93.41,23.68],[93.37,23.13],[93.16,22.91],[93.08,22.72],[93.16,22.36],[92.96,22],[92.69,22.13],[92.57,21.98],[92.59,21.47],[92.54,21.32],[92.33,21.44],[92.18,21.29],[92.32,20.79],[92.61,20.47],[92.74,20.56],[92.89,20.34],[92.79,20.21],[93,20.07],[93.36,20.06],[93.58,19.91],[93.61,19.78],[93.84,19.53],[94,19.44],[93.82,19.24],[93.58,19.4],[93.49,19.37],[93.71,19.03],[94.07,18.89],[94.25,18.61],[94.43,18.2],[94.49,17.82],[94.59,17.57],[94.56,17.31],[94.47,17.14],[94.35,16.64],[94.27,16.52],[94.21,16.13],[94.3,16.01],[94.59,16.29],[94.68,16.13],[94.66,15.9],[94.89,15.98],[94.94,15.82],[95.18,15.83],[95.39,15.72],[95.68,15.98],[95.76,16.17],[96.01,16.25],[96.32,16.44],[96.62,16.56],[96.81,16.78],[96.91,17.03],[96.85,17.2],[96.97,17.32],[97.18,17.06],[97.38,16.52],[97.62,16.54],[97.64,16.25],[97.58,16.02],[97.71,15.88],[97.8,15.18],[97.81,14.86],[98,14.34],[98.1,14.16],[98.11,13.71],[98.25,13.73],[98.42,13.48],[98.58,13.16],[98.7,12.23],[98.64,11.74],[98.74,11.59],[98.74,11.24],[98.68,10.99],[98.46,10.68],[98.52,10.35],[98.5,10.18],[98.7,10.19],[98.77,10.43],[98.76,10.66],[99.19,11.11],[99.48,11.61],[99.61,11.78],[99.46,12.19],[99.41,12.55],[99.22,12.74],[99.11,13.1],[99.18,13.23],[99.14,13.72],[98.93,14.05],[98.57,14.36],[98.25,14.81],[98.19,15.2],[98.57,15.4],[98.59,16.05],[98.82,16.18],[98.69,16.31],[98.48,16.73],[98.44,16.98],[98.26,17.15],[97.79,17.68],[97.7,17.83],[97.72,18.04],[97.48,18.49],[97.75,18.62],[97.71,18.93],[97.8,19.13],[97.82,19.46],[98.11,19.76],[98.24,19.69],[98.92,19.77],[99.02,20.04],[99.34,20.08],[99.64,20.32],[99.89,20.42],[100.12,20.32]]],[[[93.71,19.56],[93.76,19.33],[93.95,19.43],[93.71,19.56]]]]},"properties":{"name":"Myanmar"}},
{"type":"Feature","geometry":{"type":"Polygon","coordinates":[[[91.63,27.76],[91.61,27.95],[91.23,28.07],[91.08,27.97],[90.72,28.07],[90.35,28.08],[90.35,28.24],[89.98,28.31],[89.54,28.11],[88.95,27.46],[88.89,27.32],[88.74,27.18],[88.86,26.96],[89.15,26.82],[89.33,26.85],[89.76,26.7],[90.12,26.75],[90.35,26.89],[90.74,26.77],[91.29,26.79],[91.43,26.87],[91.67,26.8],[92,26.85],[91.99,27.1],[92.08,27.29],[91.99,27.45],[91.74,27.44],[91.59,27.56],[91.63,27.76]]]},"properties":{"name":"Bhutan"}},
{"type":"Feature","geometry":{"type":"MultiPolygon","coordinates":[[[[89.05,22.09],[89.09,21.87],[89.23,21.72],[89.45,21.82],[89.57,21.77],[89.81,21.98],[90.09,22.02],[90.16,21.82],[90.59,22.26],[90.6,22.44],[90.44,22.75],[90.47,23.05],[90.63,23.09],[90.83,22.72],[90.95,22.6],[91.15,22.61],[91.48,22.8],[91.69,22.5],[91.85,22.16],[92.01,21.68],[92.06,21.17],[92.32,20.79],[92.18,21.29],[92.33,21.44],[92.54,21.32],[92.59,21.47],[92.57,21.98],[92.49,22.69],[92.36,22.93],[92.33,23.32],[92.25,23.68],[91.93,23.69],[91.94,23.5],[91.75,23.29],[91.77,23.11],[91.62,22.98],[91.32,23.1],[91.16,23.66],[91.23,23.92],[91.37,24.09],[91.67,24.19],[91.88,24.2],[92.06,24.37],[92.25,24.9],[92.47,24.94],[92.05,25.17],[91.48,25.14],[91.29,25.18],[90.44,25.16],[89.81,25.31],[89.82,25.94],[89.71,26.17],[89.55,26.01],[89.29,26.04],[89.11,26.2],[88.44,26.37],[88.15,26.09],[88.08,25.89],[88.45,25.57],[88.77,25.49],[88.89,25.19],[88.46,25.19],[88.31,24.88],[88.15,24.91],[88.02,24.63],[88.15,24.49],[88.64,24.33],[88.73,24.23],[88.7,24],[88.57,23.67],[88.74,23.44],[88.72,23.25],[88.93,23.19],[88.85,23.04],[88.92,22.63],[89.05,22.27],[89.05,22.09]]],[[[90.78,22.09],[90.87,22.48],[90.67,22.81],[90.68,22.33],[90.52,22.07],[90.78,22.09]]]]},"properties":{"name":"Bangladesh"}},
{"type":"Feature","geometry":{"type":"Polygon","coordinates":[[[66.52,37.35],[66.11,37.41],[65.77,37.57],[65.55,37.25],[65.09,37.24],[64.82,37.13],[64.51,36.34],[64.36,36.23],[63.86,36.01],[63.11,35.82],[63.17,35.68],[63.06,35.45],[62.61,35.23],[62.25,35.25],[61.98,35.44],[61.54,35.46],[61.26,35.62],[61.08,34.86],[60.95,34.65],[60.73,34.52],[60.89,34.32],[60.64,34.31],[60.49,34.09],[60.51,33.64],[60.92,33.51],[60.56,33.14],[60.58,32.99],[60.83,32.25],[60.79,31.66],[60.85,31.48],[61.66,31.38],[61.81,31.07],[61.78,30.83],[60.84,29.86],[62.37,29.43],[62.48,29.41],[63.57,29.5],[64.1,29.39],[64.27,29.51],[64.52,29.56],[65.1,29.56],[66.18,29.84],[66.31,30.32],[66.29,30.61],[66.4,30.91],[66.57,31],[66.73,31.19],[66.92,31.31],[67.29,31.22],[67.74,31.34],[67.58,31.51],[68.02,31.68],[68.21,31.81],[68.6,31.8],[68.87,31.63],[69.08,31.74],[69.28,31.94],[69.24,32.43],[69.41,32.68],[69.5,33.02],[69.92,33.11],[70.26,33.29],[70.28,33.37],[70.06,33.72],[69.87,33.9],[69.99,34.05],[70.42,33.95],[70.85,33.98],[71.05,34.05],[71.1,34.37],[70.97,34.53],[71.62,35.18],[71.6,35.41],[71.43,35.83],[71.19,36.04],[71.62,36.44],[71.82,36.49],[72.16,36.7],[72.62,36.83],[73.77,36.89],[74,36.82],[74.54,37.02],[74.37,37.16],[74.73,37.29],[74.89,37.23],[74.66,37.39],[74.26,37.42],[74.17,37.33],[73.75,37.23],[73.72,37.42],[73.48,37.47],[72.9,37.27],[72.66,37.03],[72.36,36.98],[71.8,36.69],[71.6,36.73],[71.43,37.13],[71.55,37.93],[71.28,37.92],[71.33,38.17],[71.26,38.31],[70.88,38.46],[70.62,38.33],[70.42,38.08],[70.21,37.92],[70.25,37.66],[69.49,37.55],[69.41,37.21],[69.26,37.11],[68.96,37.33],[68.67,37.26],[68.07,36.95],[67.76,37.17],[67.52,37.27],[67.32,37.21],[67.07,37.33],[66.52,37.35]]]},"properties":{"name":"Afghanistan"}},
{"type":"Feature","geometry":{"type":"Polygon","coordinates":[[[77.05,35.11],[77.8,35.5],[77.45,35.48],[76.77,35.66],[77.05,35.11]]]},"properties":{"name":"Siachen Glacier"}}
]}