{"type":"FeatureCollection", "features": [
{"type":"Feature","geometry":{"type":"Polygon","coordinates":[[[95.234,26.682],[95.303,26.651],[95.431,26.7],[95.543,26.835],[95.608,26.813],[95.723,26.881],[95.802,27.015],[95.946,27.051],[96.023,27.18],[96.307,27.294],[96.518,27.286],[96.606,27.366],[96.797,27.346],[96.886,27.227],[97.062,27.099],[97.163,27.143],[96.96,27.404],[96.89,27.606],[97.019,27.74],[97.157,27.814],[97.253,27.901],[97.375,27.909],[97.395,28.026],[97.321,28.14],[97.36,28.188],[97.279,28.269],[97.171,28.292],[97.09,28.363],[96.994,28.31],[96.663,28.46],[96.369,28.389],[96.262,28.409],[96.585,28.717],[96.603,28.8],[96.518,28.967],[96.436,29.034],[96.347,29.029],[96.248,28.939],[96.151,29.05],[96.244,29.233],[96.151,29.397],[96.082,29.462],[95.958,29.381],[95.882,29.39],[95.587,29.216],[95.548,29.127],[95.411,29.032],[95.252,29.109],[94.997,29.14],[94.8,29.209],[94.644,29.347],[94.56,29.229],[94.434,29.227],[94.359,29.152],[94.217,29.084],[94.157,28.954],[93.997,28.841],[93.959,28.704],[93.846,28.707],[93.622,28.657],[93.493,28.684],[93.339,28.64],[93.195,28.317],[93.026,28.303],[92.897,28.204],[92.818,28.201],[92.689,28.125],[92.663,28.067],[92.741,27.989],[92.562,27.82],[92.309,27.779],[92.266,27.858],[92.158,27.837],[92.057,27.759],[91.881,27.722],[91.83,27.807],[91.672,27.857],[91.564,27.584],[91.655,27.483],[91.941,27.46],[92.02,27.479],[92.071,27.277],[92.028,27.078],[92.104,27.007],[92.112,26.892],[92.195,26.89],[92.447,26.959],[92.583,26.96],[92.672,27.032],[92.887,27],[93.022,26.914],[93.323,26.96],[93.489,26.936],[93.66,26.967],[93.836,27.074],[93.806,27.149],[93.991,27.328],[94.189,27.492],[94.364,27.574],[94.502,27.578],[94.852,27.728],[95.309,27.868],[95.379,27.839],[95.515,27.88],[95.605,27.955],[95.972,27.963],[95.905,27.862],[95.776,27.754],[95.791,27.6],[95.877,27.544],[95.883,27.435],[95.969,27.428],[95.96,27.311],[95.456,27.203],[95.453,27.13],[95.195,27.031],[95.23,26.923],[95.181,26.856],[95.234,26.682]]]},"properties":{"name":"Arunachal Pradesh"}},
{"type":"Feature","geometry":{"type":"Polygon","coordinates":[[[95.195,27.031],[95.453,27.13],[95.456,27.203],[95.96,27.311],[95.969,27.428],[95.883,27.435],[95.877,27.544],[95.791,27.6],[95.776,27.754],[95.905,27.862],[95.972,27.963],[95.605,27.955],[95.515,27.88],[95.379,27.839],[95.309,27.868],[94.852,27.728],[94.502,27.578],[94.364,27.574],[94.189,27.492],[93.991,27.328],[93.806,27.149],[93.836,27.074],[93.66,26.967],[93.489,26.936],[93.323,26.96],[93.022,26.914],[92.887,27],[92.672,27.032],[92.583,26.96],[92.447,26.959],[92.195,26.89],[92.112,26.892],[92.056,26.847],[91.893,26.919],[91.721,26.812],[91.495,26.791],[91.408,26.84],[91.337,26.781],[91.098,26.822],[90.992,26.791],[90.693,26.771],[90.546,26.817],[90.418,26.904],[90.195,26.774],[89.852,26.697],[89.869,26.454],[89.781,26.353],[89.72,26.166],[89.784,26.105],[89.878,25.924],[89.833,25.871],[89.827,25.741],[89.882,25.617],[89.854,25.467],[89.899,25.561],[90.02,25.608],[89.899,25.727],[90.006,25.879],[90.116,25.957],[90.211,25.953],[90.476,26.01],[90.632,25.92],[90.714,25.952],[90.957,25.935],[91.001,25.825],[91.204,25.843],[91.274,25.751],[91.335,25.841],[91.478,25.857],[91.571,26.026],[91.636,25.921],[91.72,25.954],[91.731,26.059],[91.825,26.12],[91.867,26.042],[92.121,26.044],[92.164,25.97],[92.151,25.817],[92.173,25.674],[92.379,25.748],[92.444,25.72],[92.506,25.616],[92.643,25.535],[92.618,25.423],[92.724,25.379],[92.792,25.283],[92.621,25.115],[92.525,25.135],[92.425,25.03],[92.492,24.874],[92.386,24.852],[92.249,24.909],[92.296,24.737],[92.254,24.678],[92.212,24.504],[92.292,24.25],[92.422,24.255],[92.464,24.136],[92.625,24.334],[92.799,24.419],[93.009,24.412],[93.093,24.582],[93.105,24.791],[93.191,24.804],[93.249,24.915],[93.264,25.049],[93.332,25.093],[93.381,25.24],[93.454,25.325],[93.458,25.431],[93.35,25.532],[93.401,25.611],[93.496,25.655],[93.542,25.731],[93.702,25.852],[93.736,25.923],[93.852,25.858],[93.979,25.917],[93.954,25.969],[94.001,26.172],[94.172,26.43],[94.396,26.527],[94.46,26.662],[94.692,26.732],[94.803,26.801],[94.873,26.918],[94.983,26.913],[95.195,27.031]]]},"properties":{"name":"Assam"}},
{"type":"Feature","geometry":{"type":"Polygon","coordinates":[[[76.838,30.755],[76.705,30.756],[76.777,30.67],[76.829,30.681],[76.838,30.755]]]},"properties":{"name":"Chandigarh"}},
{"type":"Feature","geometry":{"type":"Polygon","coordinates":[[[83.33,24.102],[83.216,23.938],[83.141,23.885],[82.948,23.871],[82.81,23.963],[82.699,23.925],[82.635,23.838],[82.523,23.784],[82.181,23.836],[82.053,23.819],[82.008,23.862],[81.773,23.816],[81.658,23.916],[81.611,23.513],[81.725,23.557],[81.821,23.515],[81.923,23.533],[81.985,23.415],[82.103,23.398],[82.199,23.313],[82.126,23.104],[81.991,23.087],[81.95,22.983],[81.862,22.889],[81.776,22.874],[81.794,22.766],[81.6,22.535],[81.522,22.539],[81.428,22.48],[81.327,22.526],[81.232,22.452],[81.111,22.438],[81.119,22.291],[81.05,22.245],[81.022,22.133],[80.908,22.11],[80.848,21.931],[80.839,21.8],[80.741,21.745],[80.715,21.585],[80.735,21.46],[80.66,21.334],[80.644,21.251],[80.464,21.175],[80.439,21.096],[80.464,20.929],[80.542,20.924],[80.549,20.796],[80.612,20.601],[80.626,20.336],[80.395,20.245],[80.389,20.165],[80.552,20.118],[80.539,19.952],[80.469,19.827],[80.546,19.818],[80.586,19.741],[80.676,19.699],[80.715,19.617],[80.895,19.52],[80.846,19.355],[80.757,19.29],[80.613,19.309],[80.581,19.398],[80.483,19.338],[80.388,19.18],[80.271,18.938],[80.35,18.848],[80.273,18.723],[80.346,18.595],[80.455,18.63],[80.6,18.553],[80.732,18.401],[80.737,18.222],[80.867,18.14],[80.956,18.132],[81.008,17.798],[81.086,17.798],[81.166,17.858],[81.265,17.811],[81.396,17.82],[81.483,17.977],[81.537,18.269],[81.77,18.419],[81.951,18.57],[81.961,18.689],[82.157,18.786],[82.176,18.903],[82.246,18.919],[82.218,19.097],[82.17,19.145],[82.171,19.437],[82.047,19.533],[82.066,19.791],[81.853,19.918],[81.871,20.044],[81.946,20.105],[82.184,19.984],[82.269,19.975],[82.345,19.836],[82.446,19.91],[82.707,19.835],[82.715,19.995],[82.597,19.99],[82.399,20.057],[82.391,20.162],[82.438,20.293],[82.438,20.434],[82.333,20.569],[82.377,20.632],[82.34,20.847],[82.56,20.947],[82.629,21.038],[82.64,21.155],[82.902,21.167],[83.131,21.106],[83.198,21.145],[83.217,21.255],[83.284,21.38],[83.399,21.405],[83.347,21.49],[83.383,21.62],[83.443,21.655],[83.606,21.914],[83.537,22.044],[83.627,22.204],[83.758,22.24],[83.864,22.343],[83.997,22.372],[84.047,22.438],[84.009,22.526],[84.024,22.592],[84.238,22.692],[84.396,22.939],[84.328,22.982],[84.178,22.98],[84.133,23.083],[84.032,23.161],[84.075,23.333],[83.962,23.385],[84.03,23.6],[83.938,23.569],[83.775,23.609],[83.738,23.761],[83.659,23.849],[83.559,23.893],[83.432,24.086],[83.33,24.102]]]},"properties":{"name":"Chhattisgarh"}},
{"type":"Feature","geometry":{"type":"Polygon","coordinates":[[[77.21,28.858],[77.058,28.868],[76.951,28.818],[76.968,28.7],[76.842,28.556],[76.88,28.505],[77.007,28.541],[77.243,28.479],[77.345,28.513],[77.298,28.58],[77.325,28.709],[77.199,28.798],[77.21,28.858]]]},"properties":{"name":"Delhi"}},
{"type":"Feature","geometry":{"type":"Polygon","coordinates":[[[74.118,15.652],[73.991,15.611],[73.939,15.743],[73.675,15.727],[73.766,15.495],[73.897,15.419],[73.879,15.363],[73.95,15.145],[73.932,15.079],[74.035,14.997],[74.086,14.901],[74.252,14.959],[74.326,15.283],[74.251,15.492],[74.283,15.531],[74.222,15.656],[74.118,15.652]]]},"properties":{"name":"Goa"}},
{"type":"Feature","geometry":{"type":"Polygon","coordinates":[[[77.586,30.38],[77.452,30.4],[77.226,30.48],[77.123,30.563],[77.161,30.691],[77.03,30.734],[77.012,30.81],[76.777,30.904],[76.847,30.834],[76.838,30.755],[76.829,30.681],[76.926,30.61],[76.931,30.501],[76.883,30.409],[76.79,30.415],[76.639,30.284],[76.538,30.075],[76.41,30.145],[76.226,30.059],[76.185,29.823],[76.105,29.812],[75.984,29.727],[75.87,29.749],[75.779,29.822],[75.634,29.755],[75.421,29.775],[75.346,29.696],[75.309,29.561],[75.183,29.628],[75.201,29.726],[75.07,29.877],[74.991,29.868],[74.927,29.95],[74.694,29.967],[74.629,29.905],[74.527,29.943],[74.561,29.87],[74.48,29.743],[74.616,29.752],[74.575,29.564],[74.607,29.356],[74.788,29.361],[74.851,29.404],[74.938,29.362],[74.961,29.281],[75.076,29.23],[75.21,29.235],[75.342,29.281],[75.412,29.243],[75.391,29.063],[75.522,29.004],[75.503,28.782],[75.561,28.613],[75.622,28.602],[75.77,28.423],[75.89,28.383],[76.071,28.165],[75.999,28.123],[75.971,27.852],[76.168,27.903],[76.18,28.055],[76.357,28.144],[76.476,28.149],[76.589,27.998],[76.808,28.211],[76.971,28.138],[76.931,27.953],[76.898,27.678],[77.108,27.786],[77.284,27.801],[77.546,27.958],[77.474,28.087],[77.537,28.166],[77.478,28.419],[77.345,28.513],[77.243,28.479],[77.007,28.541],[76.88,28.505],[76.842,28.556],[76.968,28.7],[76.951,28.818],[77.058,28.868],[77.21,28.858],[77.233,28.919],[77.131,29.218],[77.161,29.332],[77.096,29.52],[77.122,29.751],[77.303,30.055],[77.405,30.089],[77.584,30.307],[77.586,30.38]]]},"properties":{"name":"Haryana"}},
{"type":"Feature","geometry":{"type":"Polygon","coordinates":[[[78.399,32.526],[78.388,32.757],[78.219,32.665],[78.143,32.682],[78.016,32.62],[77.919,32.691],[77.926,32.772],[77.792,32.856],[77.731,32.974],[77.602,32.943],[77.469,32.858],[77.339,32.817],[77.164,32.919],[77.15,32.978],[76.933,33.028],[76.834,33.205],[76.771,33.25],[76.747,33.179],[76.567,33.21],[76.41,33.186],[76.292,33.103],[76.247,33.022],[76.099,32.966],[75.954,32.873],[75.811,32.878],[75.925,32.748],[75.916,32.613],[75.834,32.512],[75.902,32.453],[75.771,32.289],[75.638,32.252],[75.658,32.078],[75.91,31.95],[76.018,31.632],[76.121,31.498],[76.214,31.299],[76.432,31.327],[76.645,31.209],[76.602,31.124],[76.625,30.999],[76.777,30.904],[77.012,30.81],[77.03,30.734],[77.161,30.691],[77.123,30.563],[77.226,30.48],[77.452,30.4],[77.586,30.38],[77.576,30.397],[77.819,30.508],[77.791,30.634],[77.709,30.74],[77.799,30.868],[77.754,30.965],[77.864,31.109],[78.16,31.226],[78.37,31.286],[78.484,31.199],[78.81,31.198],[78.885,31.099],[78.986,31.174],[78.882,31.287],[78.792,31.305],[78.798,31.443],[78.735,31.536],[78.847,31.608],[78.705,31.776],[78.781,31.993],[78.59,32.154],[78.609,32.214],[78.482,32.28],[78.535,32.414],[78.399,32.526]]]},"properties":{"name":"Himachal Pradesh"}},
{"type":"Feature","geometry":{"type":"Polygon","coordinates":[[[87.711,25.258],[87.698,25.304],[87.552,25.333],[87.473,25.238],[87.335,25.216],[87.297,25.114],[87.146,25.019],[87.157,24.881],[87.105,24.847],[87.051,24.609],[86.933,24.631],[86.841,24.563],[86.787,24.616],[86.669,24.566],[86.603,24.608],[86.517,24.535],[86.445,24.368],[86.349,24.447],[86.285,24.588],[86.167,24.584],[86.129,24.699],[86.055,24.78],[85.92,24.745],[85.855,24.808],[85.737,24.821],[85.676,24.616],[85.498,24.547],[85.322,24.52],[85.174,24.421],[85.028,24.415],[84.954,24.372],[84.837,24.459],[84.826,24.525],[84.583,24.413],[84.502,24.288],[84.342,24.393],[84.297,24.56],[84.173,24.545],[84.108,24.477],[84.034,24.63],[83.937,24.55],[83.719,24.503],[83.503,24.525],[83.402,24.503],[83.45,24.377],[83.33,24.102],[83.432,24.086],[83.559,23.893],[83.659,23.849],[83.738,23.761],[83.775,23.609],[83.938,23.569],[84.03,23.6],[83.962,23.385],[84.075,23.333],[84.032,23.161],[84.133,23.083],[84.178,22.98],[84.328,22.982],[84.396,22.939],[84.238,22.692],[84.024,22.592],[84.009,22.526],[84.141,22.474],[84.197,22.378],[84.291,22.343],[84.429,22.352],[84.508,22.421],[84.759,22.447],[84.915,22.426],[85.057,22.486],[85.117,22.294],[85.028,22.122],[85.252,22.027],[85.366,22.159],[85.599,22.078],[85.749,22.074],[85.784,21.984],[85.908,21.971],[86.031,22.19],[85.974,22.247],[86.018,22.426],[85.963,22.485],[86.045,22.568],[86.118,22.487],[86.269,22.442],[86.41,22.32],[86.504,22.343],[86.727,22.217],[86.824,22.267],[86.846,22.4],[86.766,22.576],[86.659,22.576],[86.641,22.658],[86.482,22.729],[86.419,22.791],[86.501,22.995],[86.223,22.995],[86.044,23.145],[85.894,23.155],[85.82,23.268],[85.869,23.33],[85.876,23.481],[86.039,23.498],[86.042,23.586],[86.143,23.564],[86.148,23.465],[86.289,23.43],[86.368,23.541],[86.491,23.638],[86.713,23.699],[86.799,23.689],[86.889,23.844],[86.986,23.86],[87.123,23.796],[87.295,23.902],[87.245,24.045],[87.439,23.982],[87.532,24.107],[87.761,24.308],[87.816,24.501],[87.892,24.566],[87.917,24.666],[87.843,24.74],[87.958,24.971],[87.796,25.087],[87.779,25.251],[87.711,25.258]]]},"properties":{"name":"Jharkhand"}},
{"type":"Feature","geometry":{"type":"Polygon","coordinates":[[[77.551,18.292],[77.409,18.301],[77.414,18.393],[77.336,18.45],[77.242,18.413],[77.14,18.208],[76.952,18.188],[76.921,18.118],[76.919,17.916],[76.775,17.878],[76.691,17.681],[76.561,17.765],[76.487,17.715],[76.42,17.604],[76.331,17.597],[76.363,17.378],[76.119,17.371],[75.931,17.323],[75.894,17.401],[75.806,17.368],[75.633,17.477],[75.604,17.306],[75.654,17.274],[75.628,17.163],[75.672,17.116],[75.666,16.98],[75.466,16.988],[75.28,16.957],[75.265,16.863],[75.182,16.843],[75.089,16.952],[74.993,16.952],[74.91,16.835],[74.92,16.772],[74.772,16.751],[74.689,16.686],[74.688,16.618],[74.569,16.554],[74.545,16.635],[74.397,16.583],[74.333,16.455],[74.351,16.275],[74.503,16.225],[74.483,16.09],[74.387,15.905],[74.368,15.786],[74.308,15.749],[74.162,15.751],[74.118,15.652],[74.222,15.656],[74.283,15.531],[74.251,15.492],[74.326,15.283],[74.252,14.959],[74.086,14.901],[74.141,14.779],[74.25,14.739],[74.316,14.528],[74.355,14.509],[74.47,14.188],[74.501,14.023],[74.61,13.867],[74.67,13.635],[74.698,13.347],[74.775,13.084],[74.824,12.847],[74.87,12.761],[75.009,12.768],[75.047,12.667],[75.16,12.672],[75.28,12.524],[75.382,12.502],[75.38,12.392],[75.436,12.295],[75.505,12.271],[75.577,12.157],[75.649,12.109],[75.803,12.08],[75.87,11.952],[76.003,11.931],[76.112,11.979],[76.113,11.859],[76.19,11.871],[76.431,11.666],[76.512,11.705],[76.56,11.623],[76.757,11.619],[76.835,11.656],[76.908,11.795],[77.013,11.815],[77.111,11.774],[77.294,11.809],[77.335,11.771],[77.45,11.796],[77.464,11.894],[77.676,11.952],[77.774,12.121],[77.728,12.182],[77.472,12.208],[77.617,12.368],[77.635,12.488],[77.587,12.515],[77.599,12.667],[77.74,12.673],[77.799,12.852],[77.922,12.885],[78.01,12.806],[78.077,12.84],[78.231,12.761],[78.252,12.861],[78.389,12.907],[78.567,13.193],[78.556,13.284],[78.401,13.316],[78.378,13.363],[78.385,13.592],[78.19,13.59],[78.114,13.657],[78.115,13.863],[77.992,13.869],[77.896,13.941],[77.782,13.818],[77.651,13.784],[77.534,13.707],[77.465,13.711],[77.433,13.843],[77.257,13.847],[77.065,13.744],[76.976,13.817],[77.042,13.933],[76.931,14.03],[76.973,14.084],[77.141,14.004],[77.307,14.032],[77.398,13.907],[77.394,14.174],[77.504,14.157],[77.482,14.292],[77.364,14.276],[77.136,14.337],[77.117,14.226],[76.94,14.245],[76.948,14.413],[76.901,14.489],[76.806,14.531],[76.765,14.602],[76.837,14.791],[76.87,14.938],[76.767,14.976],[76.8,15.096],[76.877,15.03],[77.113,15.034],[77.169,15.171],[77.152,15.276],[77.042,15.362],[77.03,15.635],[77.071,15.909],[77.185,15.957],[77.43,15.949],[77.513,15.927],[77.49,16.12],[77.49,16.385],[77.421,16.366],[77.288,16.409],[77.294,16.477],[77.419,16.522],[77.468,16.61],[77.459,16.917],[77.497,17.043],[77.378,17.14],[77.38,17.223],[77.459,17.279],[77.537,17.444],[77.689,17.511],[77.443,17.584],[77.452,17.695],[77.569,17.749],[77.515,17.805],[77.65,17.95],[77.597,18.087],[77.551,18.292]]]},"properties":{"name":"Karnataka"}},
{"type":"Feature","geometry":{"type":"Polygon","coordinates":[[[94.675,25.446],[94.554,25.503],[94.59,25.681],[94.425,25.587],[94.355,25.512],[94.219,25.492],[94.108,25.522],[94.022,25.59],[93.96,25.551],[93.834,25.561],[93.81,25.484],[93.623,25.231],[93.501,25.242],[93.454,25.325],[93.381,25.24],[93.332,25.093],[93.264,25.049],[93.249,24.915],[93.191,24.804],[93.105,24.791],[93.093,24.582],[93.009,24.412],[93.04,24.341],[92.991,24.116],[93.104,24.05],[93.326,24.049],[93.422,24.064],[93.49,23.951],[93.624,24.011],[93.754,24.006],[93.82,23.924],[93.893,23.953],[94.017,23.927],[94.157,23.848],[94.237,24.035],[94.26,24.165],[94.408,24.44],[94.455,24.566],[94.605,24.716],[94.632,24.84],[94.688,24.889],[94.744,25.037],[94.736,25.135],[94.606,25.181],[94.585,25.267],[94.675,25.446]]]},"properties":{"name":"Manipur"}},
{"type":"Feature","geometry":{"type":"Polygon","coordinates":[[[92.425,25.03],[92.525,25.135],[92.621,25.115],[92.792,25.283],[92.724,25.379],[92.618,25.423],[92.643,25.535],[92.506,25.616],[92.444,25.72],[92.379,25.748],[92.173,25.674],[92.151,25.817],[92.164,25.97],[92.121,26.044],[91.867,26.042],[91.825,26.12],[91.731,26.059],[91.72,25.954],[91.636,25.921],[91.571,26.026],[91.478,25.857],[91.335,25.841],[91.274,25.751],[91.204,25.843],[91.001,25.825],[90.957,25.935],[90.714,25.952],[90.632,25.92],[90.476,26.01],[90.211,25.953],[90.116,25.957],[90.006,25.879],[89.899,25.727],[90.02,25.608],[89.899,25.561],[89.854,25.467],[89.816,25.389],[89.908,25.308],[90.112,25.224],[90.332,25.192],[90.445,25.144],[90.51,25.168],[90.869,25.16],[91.082,25.202],[91.252,25.198],[91.493,25.135],[91.603,25.174],[92.081,25.184],[92.135,25.143],[92.425,25.03]]]},"properties":{"name":"Meghalaya"}},
{"type":"Feature","geometry":{"type":"Polygon","coordinates":[[[93.009,24.412],[92.799,24.419],[92.625,24.334],[92.464,24.136],[92.422,24.255],[92.292,24.25],[92.332,24.152],[92.325,23.914],[92.257,23.813],[92.265,23.725],[92.4,23.236],[92.346,23.237],[92.392,23.057],[92.374,22.971],[92.461,22.861],[92.529,22.666],[92.61,22.138],[92.598,22.009],[92.68,22.012],[92.727,22.149],[92.891,22.011],[92.978,21.998],[93.063,22.208],[93.161,22.197],[93.199,22.256],[93.185,22.428],[93.106,22.527],[93.14,22.593],[93.091,22.705],[93.134,22.892],[93.127,23.044],[93.241,23.007],[93.333,23.05],[93.38,23.187],[93.365,23.306],[93.401,23.384],[93.395,23.504],[93.436,23.678],[93.326,24.049],[93.104,24.05],[92.991,24.116],[93.04,24.341],[93.009,24.412]]]},"properties":{"name":"Mizoram"}},
{"type":"Feature","geometry":{"type":"Polygon","coordinates":[[[95.195,27.031],[94.983,26.913],[94.873,26.918],[94.803,26.801],[94.692,26.732],[94.46,26.662],[94.396,26.527],[94.172,26.43],[94.001,26.172],[93.954,25.969],[93.979,25.917],[93.852,25.858],[93.736,25.923],[93.702,25.852],[93.542,25.731],[93.496,25.655],[93.401,25.611],[93.35,25.532],[93.458,25.431],[93.454,25.325],[93.501,25.242],[93.623,25.231],[93.81,25.484],[93.834,25.561],[93.96,25.551],[94.022,25.59],[94.108,25.522],[94.219,25.492],[94.355,25.512],[94.425,25.587],[94.59,25.681],[94.554,25.503],[94.675,25.446],[94.806,25.492],[94.935,25.667],[95.041,25.742],[95.009,25.867],[95.186,26.073],[95.118,26.101],[95.132,26.378],[95.073,26.473],[95.234,26.682],[95.181,26.856],[95.23,26.923],[95.195,27.031]]]},"properties":{"name":"Nagaland"}},
{"type":"Feature","geometry":{"type":"Polygon","coordinates":[[[76.777,30.904],[76.625,30.999],[76.602,31.124],[76.645,31.209],[76.432,31.327],[76.214,31.299],[76.121,31.498],[76.018,31.632],[75.91,31.95],[75.658,32.078],[75.638,32.252],[75.771,32.289],[75.902,32.453],[75.834,32.512],[75.687,32.391],[75.48,32.334],[75.332,32.327],[75.37,32.258],[75.248,32.101],[74.983,32.04],[74.879,32.054],[74.819,31.959],[74.608,31.89],[74.547,31.749],[74.584,31.521],[74.652,31.457],[74.552,31.364],[74.51,31.132],[74.689,31.128],[74.667,31.052],[74.548,31.032],[74.32,30.847],[74.275,30.737],[74.102,30.579],[73.964,30.485],[73.884,30.367],[73.973,30.198],[73.971,30.125],[73.895,29.974],[74.527,29.943],[74.629,29.905],[74.694,29.967],[74.927,29.95],[74.991,29.868],[75.07,29.877],[75.201,29.726],[75.183,29.628],[75.309,29.561],[75.346,29.696],[75.421,29.775],[75.634,29.755],[75.779,29.822],[75.87,29.749],[75.984,29.727],[76.105,29.812],[76.185,29.823],[76.226,30.059],[76.41,30.145],[76.538,30.075],[76.639,30.284],[76.79,30.415],[76.883,30.409],[76.931,30.501],[76.926,30.61],[76.829,30.681],[76.777,30.67],[76.705,30.756],[76.838,30.755],[76.847,30.834],[76.777,30.904]]]},"properties":{"name":"Punjab"}},
{"type":"Feature","geometry":{"type":"Polygon","coordinates":[[[74.527,29.943],[73.895,29.974],[73.971,30.125],[73.973,30.198],[73.806,30.068],[73.597,30.019],[73.397,29.946],[73.282,29.572],[73.085,29.236],[73.004,29.153],[72.945,29.028],[72.732,28.948],[72.404,28.783],[72.299,28.67],[72.206,28.394],[72.016,28.228],[71.928,28.122],[71.898,27.962],[71.666,27.878],[71.383,27.872],[71.205,27.835],[70.906,27.71],[70.759,27.721],[70.684,27.828],[70.677,27.922],[70.589,28.01],[70.505,28.037],[70.372,28.012],[70.132,27.806],[70.026,27.563],[69.863,27.402],[69.587,27.184],[69.513,27.01],[69.484,26.805],[69.51,26.744],[69.886,26.579],[70.056,26.601],[70.174,26.551],[70.175,26.251],[70.083,26.083],[70.1,25.938],[70.268,25.714],[70.387,25.674],[70.609,25.715],[70.674,25.676],[70.665,25.397],[70.751,25.278],[70.888,25.148],[70.937,24.939],[71.112,24.676],[71.299,24.624],[71.479,24.68],[71.708,24.662],[71.984,24.686],[72.061,24.712],[72.165,24.621],[72.23,24.641],[72.295,24.547],[72.354,24.564],[72.457,24.415],[72.539,24.52],[72.656,24.462],[72.724,24.368],[72.911,24.337],[73.003,24.467],[73.169,24.3],[73.067,24.195],[73.214,24.078],[73.243,24.002],[73.361,24.081],[73.413,23.939],[73.354,23.853],[73.474,23.705],[73.656,23.621],[73.627,23.448],[73.768,23.453],[73.892,23.334],[74.029,23.332],[74.139,23.266],[74.128,23.176],[74.273,23.16],[74.324,23.061],[74.386,23.111],[74.528,23.098],[74.713,23.25],[74.515,23.316],[74.572,23.421],[74.701,23.504],[74.847,23.552],[74.937,23.629],[74.94,23.765],[74.904,23.853],[74.939,24.054],[74.868,24.243],[74.775,24.239],[74.781,24.338],[74.855,24.424],[74.727,24.489],[74.787,24.586],[74.772,24.661],[74.929,24.636],[74.972,24.763],[74.861,24.799],[74.826,24.901],[75.034,24.845],[75.117,24.878],[75.114,24.967],[75.198,25.033],[75.334,25.041],[75.216,24.802],[75.228,24.718],[75.455,24.681],[75.534,24.712],[75.646,24.685],[75.757,24.762],[75.836,24.728],[75.904,24.548],[75.909,24.455],[75.731,24.399],[75.74,24.332],[75.83,24.233],[75.751,24.143],[75.837,24.057],[75.702,23.967],[75.521,24.025],[75.462,23.914],[75.564,23.856],[75.584,23.795],[75.981,23.929],[75.999,24.021],[76.127,24.088],[76.117,24.194],[76.322,24.245],[76.505,24.203],[76.643,24.269],[76.676,24.191],[76.791,24.124],[76.901,24.127],[76.922,24.212],[76.832,24.358],[76.863,24.55],[76.978,24.461],[77.055,24.526],[77.065,24.644],[76.947,24.759],[76.856,24.742],[76.803,24.809],[76.95,24.869],[76.862,24.961],[76.876,25.042],[77,25.075],[77.123,25.067],[77.175,25.112],[77.298,25.086],[77.393,25.119],[77.412,25.224],[77.314,25.431],[77.209,25.306],[77.084,25.337],[76.958,25.284],[76.857,25.333],[76.778,25.315],[76.623,25.377],[76.516,25.528],[76.504,25.671],[76.53,25.811],[76.632,25.9],[76.791,25.943],[76.901,26.093],[77.116,26.22],[77.204,26.23],[77.438,26.403],[77.524,26.407],[77.745,26.538],[77.833,26.561],[78.001,26.695],[78.096,26.681],[78.107,26.791],[78.223,26.831],[78.272,26.919],[78.119,26.947],[78.094,26.903],[77.948,26.894],[77.761,26.933],[77.723,26.874],[77.558,26.818],[77.485,26.748],[77.398,26.83],[77.46,26.886],[77.661,26.971],[77.538,27.098],[77.658,27.17],[77.548,27.337],[77.44,27.39],[77.438,27.456],[77.34,27.527],[77.353,27.651],[77.284,27.801],[77.108,27.786],[76.898,27.678],[76.931,27.953],[76.971,28.138],[76.808,28.211],[76.589,27.998],[76.476,28.149],[76.357,28.144],[76.18,28.055],[76.168,27.903],[75.971,27.852],[75.999,28.123],[76.071,28.165],[75.89,28.383],[75.77,28.423],[75.622,28.602],[75.561,28.613],[75.503,28.782],[75.522,29.004],[75.391,29.063],[75.412,29.243],[75.342,29.281],[75.21,29.235],[75.076,29.23],[74.961,29.281],[74.938,29.362],[74.851,29.404],[74.788,29.361],[74.607,29.356],[74.575,29.564],[74.616,29.752],[74.48,29.743],[74.561,29.87],[74.527,29.943]]]},"properties":{"name":"Rajasthan"}},
{"type":"Feature","geometry":{"type":"Polygon","coordinates":[[[88.746,27.142],[88.803,27.248],[88.92,27.327],[88.777,27.469],[88.848,27.668],[88.883,27.891],[88.844,27.993],[88.756,28.076],[88.566,28.09],[88.543,28.033],[88.388,27.979],[88.237,27.971],[88.119,27.917],[88.196,27.854],[88.143,27.663],[88.045,27.478],[88.068,27.335],[88.015,27.212],[88.154,27.11],[88.317,27.126],[88.431,27.079],[88.596,27.189],[88.746,27.142]]]},"properties":{"name":"Sikkim"}},
{"type":"Feature","geometry":{"type":"Polygon","coordinates":[[[92.212,24.504],[92.111,24.383],[91.922,24.338],[91.942,24.263],[91.903,24.138],[91.747,24.245],[91.628,24.101],[91.54,24.073],[91.376,24.106],[91.361,23.985],[91.28,23.982],[91.167,23.75],[91.16,23.596],[91.255,23.487],[91.324,23.238],[91.415,23.263],[91.484,23.209],[91.577,22.966],[91.72,22.987],[91.822,23.086],[91.764,23.31],[91.976,23.497],[91.937,23.689],[92.074,23.646],[92.265,23.725],[92.257,23.813],[92.325,23.914],[92.332,24.152],[92.292,24.25],[92.212,24.504]]]},"properties":{"name":"Tripura"}},
{"type":"Feature","geometry":{"type":"Polygon","coordinates":[[[80.065,28.837],[80.059,28.916],[80.127,29.006],[80.145,29.103],[80.259,29.188],[80.318,29.313],[80.243,29.411],[80.409,29.598],[80.368,29.724],[80.435,29.805],[80.554,29.849],[80.602,29.957],[80.675,29.957],[80.877,30.129],[81.035,30.198],[81.032,30.247],[80.804,30.324],[80.607,30.472],[80.541,30.448],[80.315,30.565],[80.209,30.588],[80.249,30.72],[80.172,30.809],[80.087,30.796],[79.932,30.88],[79.874,30.967],[79.775,30.987],[79.601,30.939],[79.417,31.044],[79.318,31.136],[79.096,31.452],[79.016,31.423],[78.882,31.287],[78.986,31.174],[78.885,31.099],[78.81,31.198],[78.484,31.199],[78.37,31.286],[78.16,31.226],[77.864,31.109],[77.754,30.965],[77.799,30.868],[77.709,30.74],[77.791,30.634],[77.819,30.508],[77.576,30.397],[77.937,30.249],[77.86,30.113],[77.798,30.084],[77.714,29.87],[77.83,29.668],[77.913,29.696],[78.015,29.587],[78.131,29.653],[78.204,29.737],[78.336,29.797],[78.514,29.723],[78.58,29.586],[78.706,29.503],[78.919,29.434],[78.912,29.394],[78.735,29.3],[78.871,29.227],[78.919,29.136],[79.039,29.158],[79.154,29.115],[79.212,29.028],[79.407,28.952],[79.425,28.868],[79.72,28.846],[79.829,28.885],[79.954,28.723],[80.03,28.749],[80.065,28.837]]]},"properties":{"name":"Uttarakhand"}},
{"type":"Feature","geometry":{"type":"Polygon","coordinates":[[[80.273,18.723],[80.118,18.681],[80.019,18.77],[79.962,18.867],[79.937,19.043],[79.858,19.102],[79.946,19.17],[79.972,19.416],[79.945,19.47],[79.743,19.609],[79.629,19.574],[79.603,19.515],[79.498,19.506],[79.273,19.599],[79.204,19.494],[79.046,19.548],[78.94,19.552],[78.956,19.656],[78.86,19.689],[78.841,19.762],[78.552,19.824],[78.423,19.818],[78.343,19.713],[78.276,19.692],[78.304,19.456],[78.212,19.428],[78.172,19.36],[78.175,19.238],[78.056,19.237],[77.945,19.342],[77.871,19.255],[77.8,19.051],[77.843,18.909],[77.84,18.805],[77.739,18.557],[77.596,18.549],[77.526,18.342],[77.551,18.292],[77.597,18.087],[77.65,17.95],[77.515,17.805],[77.569,17.749],[77.452,17.695],[77.443,17.584],[77.689,17.511],[77.537,17.444],[77.459,17.279],[77.38,17.223],[77.378,17.14],[77.497,17.043],[77.459,16.917],[77.468,16.61],[77.419,16.522],[77.294,16.477],[77.288,16.409],[77.421,16.366],[77.49,16.385],[77.49,16.12],[77.513,15.927],[77.804,15.874],[77.888,15.906],[78.099,15.836],[78.175,15.858],[78.299,16.012],[78.408,16.075],[78.552,16.043],[78.627,16.088],[78.736,16.008],[78.84,16.078],[78.834,16.145],[79.01,16.24],[79.217,16.227],[79.221,16.514],[79.257,16.566],[79.419,16.58],[79.599,16.673],[79.793,16.726],[79.963,16.644],[80.055,16.745],[80.073,16.817],[79.999,16.865],[80.055,16.971],[80.17,17.017],[80.307,16.974],[80.322,16.88],[80.57,16.768],[80.602,16.919],[80.465,17.03],[80.58,17.153],[80.829,17.053],[80.919,17.22],[80.994,17.191],[81.174,17.23],[81.19,17.325],[81.274,17.317],[81.312,17.409],[81.148,17.464],[81.127,17.526],[81.02,17.52],[80.969,17.598],[80.855,17.602],[80.886,17.736],[81.041,17.748],[81.086,17.798],[81.008,17.798],[80.956,18.132],[80.867,18.14],[80.737,18.222],[80.732,18.401],[80.6,18.553],[80.455,18.63],[80.346,18.595],[80.273,18.723]]]},"properties":{"name":"Telangana"}},
{"type":"Feature","geometry":{"type":"MultiPolygon","coordinates":[[[[93.837,7.24],[93.645,7.127],[93.667,7.023],[93.738,6.964],[93.8,6.766],[93.878,6.793],[93.921,6.955],[93.837,7.24]]],[[[92.792,9.239],[92.72,9.219],[92.728,9.127],[92.826,9.14],[92.792,9.239]]],[[[92.521,10.898],[92.379,10.742],[92.419,10.55],[92.499,10.513],[92.569,10.578],[92.598,10.705],[92.559,10.863],[92.521,10.898]]],[[[92.639,11.511],[92.586,11.401],[92.685,11.367],[92.639,11.511]]],[[[92.696,12.239],[92.622,12.102],[92.592,11.735],[92.607,11.594],[92.646,11.522],[92.722,11.532],[92.751,11.609],[92.786,11.926],[92.734,12.103],[92.756,12.177],[92.696,12.239]]],[[[92.81,12.313],[92.763,12.263],[92.815,12.139],[92.884,12.198],[92.872,12.302],[92.81,12.313]]],[[[92.901,12.911],[92.874,12.881],[92.79,12.89],[92.722,12.826],[92.752,12.672],[92.708,12.576],[92.699,12.328],[92.88,12.335],[92.974,12.543],[92.967,12.74],[92.901,12.911]]],[[[93.03,13.568],[92.927,13.522],[92.848,13.412],[92.832,13.214],[92.793,13.091],[92.801,12.9],[92.858,12.901],[92.902,13.022],[93.002,13.029],[93.056,13.256],[93.032,13.345],[93.03,13.568]]]]},"properties":{"name":"Andaman & Nicobar"}},
{"type":"Feature","geometry":{"type":"Polygon","coordinates":[[[88.105,26.551],[88.09,26.441],[88.034,26.393],[87.9,26.478],[87.767,26.411],[87.584,26.393],[87.464,26.44],[87.34,26.348],[87.235,26.415],[87.162,26.405],[87.016,26.532],[86.834,26.439],[86.692,26.451],[86.542,26.538],[86.307,26.62],[86.142,26.605],[86.027,26.666],[85.859,26.569],[85.732,26.654],[85.735,26.796],[85.624,26.874],[85.334,26.742],[85.197,26.77],[85.191,26.87],[85.058,26.849],[84.962,26.961],[84.643,27.046],[84.69,27.222],[84.62,27.339],[84.279,27.395],[84.259,27.451],[84.098,27.517],[84.046,27.446],[83.87,27.437],[83.864,27.344],[83.912,27.246],[83.987,27.198],[83.948,27.113],[84.05,27.043],[84.052,26.906],[84.182,26.834],[84.33,26.684],[84.281,26.6],[84.087,26.639],[84.056,26.545],[83.917,26.517],[83.911,26.45],[84.177,26.371],[84.177,26.265],[84.026,26.204],[84.089,26.1],[84.207,26],[84.511,25.871],[84.625,25.792],[84.52,25.675],[84.365,25.742],[84.324,25.67],[84.223,25.662],[84.174,25.721],[84.081,25.636],[83.921,25.552],[83.808,25.409],[83.41,25.247],[83.366,25.195],[83.355,24.905],[83.398,24.778],[83.489,24.736],[83.542,24.613],[83.503,24.525],[83.719,24.503],[83.937,24.55],[84.034,24.63],[84.108,24.477],[84.173,24.545],[84.297,24.56],[84.342,24.393],[84.502,24.288],[84.583,24.413],[84.826,24.525],[84.837,24.459],[84.954,24.372],[85.028,24.415],[85.174,24.421],[85.322,24.52],[85.498,24.547],[85.676,24.616],[85.737,24.821],[85.855,24.808],[85.92,24.745],[86.055,24.78],[86.129,24.699],[86.167,24.584],[86.285,24.588],[86.349,24.447],[86.445,24.368],[86.517,24.535],[86.603,24.608],[86.669,24.566],[86.787,24.616],[86.841,24.563],[86.933,24.631],[87.051,24.609],[87.105,24.847],[87.157,24.881],[87.146,25.019],[87.297,25.114],[87.335,25.216],[87.473,25.238],[87.552,25.333],[87.698,25.304],[87.711,25.258],[87.853,25.29],[87.765,25.384],[87.866,25.497],[88.021,25.571],[88.05,25.702],[87.91,25.781],[87.831,25.871],[87.855,26.011],[87.981,26.139],[88.228,26.285],[88.283,26.378],[88.242,26.457],[88.105,26.551]]]},"properties":{"name":"Bihar"}},
{"type":"Feature","geometry":{"type":"MultiPolygon","coordinates":[[[[72.362,22.029],[72.293,21.967],[72.323,21.818],[72.438,21.928],[72.362,22.029]]],[[[74.324,23.061],[74.273,23.16],[74.128,23.176],[74.139,23.266],[74.029,23.332],[73.892,23.334],[73.768,23.453],[73.627,23.448],[73.656,23.621],[73.474,23.705],[73.354,23.853],[73.413,23.939],[73.361,24.081],[73.243,24.002],[73.214,24.078],[73.067,24.195],[73.169,24.3],[73.003,24.467],[72.911,24.337],[72.724,24.368],[72.656,24.462],[72.539,24.52],[72.457,24.415],[72.354,24.564],[72.295,24.547],[72.23,24.641],[72.165,24.621],[72.061,24.712],[71.984,24.686],[71.708,24.662],[71.479,24.68],[71.299,24.624],[71.112,24.676],[70.986,24.595],[70.986,24.365],[70.806,24.221],[70.571,24.251],[70.573,24.422],[70.11,24.295],[70.025,24.171],[69.732,24.171],[69.594,24.293],[69.491,24.267],[69.313,24.281],[69.194,24.236],[69.095,24.274],[69.003,24.223],[68.946,24.303],[68.857,24.214],[68.769,24.264],[68.753,23.971],[68.339,23.966],[68.208,23.875],[68.202,23.766],[68.119,23.616],[68.31,23.579],[68.326,23.496],[68.661,23.148],[69.196,22.838],[69.477,22.795],[69.647,22.796],[70.072,22.921],[70.245,23.163],[70.372,23.219],[70.505,23.177],[70.718,23.189],[70.689,23.117],[70.561,23.029],[70.538,22.965],[70.376,22.908],[70.217,22.658],[70.125,22.553],[69.972,22.54],[69.617,22.345],[69.364,22.317],[69.148,22.236],[69.164,22.404],[69.07,22.385],[69.007,22.44],[68.937,22.305],[69.055,22.129],[69.282,21.896],[69.708,21.535],[70.002,21.205],[70.257,20.974],[70.447,20.848],[70.743,20.72],[70.874,20.704],[70.92,20.743],[71.007,20.737],[71.321,20.847],[71.437,20.869],[71.511,20.945],[71.805,21.04],[72.112,21.199],[72.108,21.302],[72.211,21.421],[72.309,21.639],[72.177,21.804],[72.373,22.316],[72.687,22.272],[72.561,22.173],[72.508,21.934],[72.619,21.825],[72.553,21.662],[72.706,21.527],[72.686,21.44],[72.601,21.323],[72.638,21.211],[72.619,21.114],[72.702,21.096],[72.757,20.932],[72.829,20.81],[72.9,20.582],[72.856,20.467],[72.857,20.419],[72.821,20.368],[72.74,20.243],[72.737,20.135],[72.87,20.228],[72.899,20.228],[72.962,20.209],[72.964,20.21],[72.966,20.225],[72.954,20.237],[72.912,20.269],[72.937,20.295],[73.132,20.274],[73.133,20.206],[73.211,20.12],[73.299,20.209],[73.417,20.198],[73.404,20.386],[73.468,20.496],[73.444,20.681],[73.6,20.637],[73.652,20.564],[73.838,20.621],[73.944,20.824],[73.901,20.982],[73.703,21.118],[73.612,21.138],[73.617,21.143],[73.577,21.156],[73.583,21.161],[73.577,21.171],[73.607,21.179],[73.606,21.172],[73.607,21.163],[73.607,21.162],[73.607,21.161],[73.63,21.153],[73.63,21.152],[73.63,21.151],[73.627,21.143],[73.665,21.147],[73.664,21.152],[73.676,21.153],[73.675,21.153],[73.702,21.154],[73.816,21.174],[73.827,21.268],[73.942,21.299],[73.944,21.4],[74.161,21.469],[74.082,21.549],[74.054,21.559],[74.055,21.55],[74.053,21.548],[74.053,21.547],[74.05,21.548],[74.051,21.545],[74.049,21.545],[74.049,21.544],[74.047,21.545],[74.048,21.545],[74.043,21.546],[74.043,21.545],[74.037,21.545],[74.038,21.545],[74.038,21.549],[74.038,21.551],[74.034,21.548],[74.035,21.546],[74.01,21.549],[74.011,21.549],[74,21.545],[74.002,21.542],[73.995,21.538],[73.995,21.539],[73.996,21.539],[73.993,21.541],[73.993,21.542],[73.974,21.543],[73.974,21.539],[73.974,21.538],[73.974,21.537],[73.982,21.522],[73.955,21.54],[73.955,21.535],[73.954,21.534],[73.956,21.525],[73.954,21.524],[73.955,21.52],[73.952,21.518],[73.952,21.517],[73.951,21.515],[73.952,21.513],[73.951,21.513],[73.951,21.512],[73.94,21.515],[73.94,21.514],[73.932,21.512],[73.932,21.513],[73.929,21.52],[73.929,21.523],[73.921,21.523],[73.921,21.52],[73.904,21.524],[73.905,21.519],[73.905,21.516],[73.873,21.51],[73.873,21.511],[73.869,21.511],[73.869,21.513],[73.864,21.512],[73.873,21.506],[73.864,21.5],[73.865,21.499],[73.864,21.498],[73.863,21.498],[73.863,21.499],[73.85,21.503],[73.846,21.508],[73.814,21.601],[73.888,21.653],[73.824,21.761],[73.873,21.842],[74.147,21.953],[74.099,22.003],[74.122,22.195],[74.072,22.219],[74.071,22.361],[74.19,22.32],[74.244,22.434],[74.134,22.446],[74.133,22.52],[74.277,22.646],[74.379,22.635],[74.465,22.816],[74.461,22.908],[74.378,22.907],[74.324,23.061]]]]},"properties":{"name":"Gujarat"}},
{"type":"Feature","geometry":{"type":"Polygon","coordinates":[[[76.431,11.666],[76.19,11.871],[76.113,11.859],[76.112,11.979],[76.003,11.931],[75.87,11.952],[75.803,12.08],[75.649,12.109],[75.577,12.157],[75.505,12.271],[75.436,12.295],[75.38,12.392],[75.382,12.502],[75.28,12.524],[75.16,12.672],[75.047,12.667],[75.009,12.768],[74.87,12.761],[75.015,12.419],[75.042,12.389],[75.201,12.006],[75.25,12.01],[75.531,11.704],[75.537,11.694],[75.619,11.487],[75.681,11.451],[75.834,11.105],[75.915,10.779],[76.1,10.382],[76.261,9.881],[76.308,9.542],[76.34,9.41],[76.517,9.018],[76.542,8.913],[76.699,8.739],[76.998,8.375],[77.098,8.292],[77.168,8.333],[77.266,8.585],[77.177,8.725],[77.264,8.842],[77.147,9.021],[77.268,9.153],[77.283,9.301],[77.366,9.46],[77.365,9.553],[77.166,9.613],[77.233,9.769],[77.213,9.877],[77.273,9.964],[77.288,10.232],[77.176,10.359],[76.984,10.22],[76.83,10.303],[76.839,10.596],[76.904,10.762],[76.828,10.873],[76.659,10.931],[76.748,11.135],[76.629,11.194],[76.534,11.186],[76.548,11.359],[76.251,11.502],[76.265,11.594],[76.378,11.602],[76.431,11.666]]]},"properties":{"name":"Kerala"}},
{"type":"Feature","geometry":{"type":"Polygon","coordinates":[[[73.054,8.273],[73.066,8.285],[73.064,8.294],[73.048,8.275],[73.054,8.273]]]},"properties":{"name":"Lakshadweep"}},
{"type":"Feature","geometry":{"type":"Polygon","coordinates":[[[82.81,23.963],[82.728,24.136],[82.771,24.328],[82.713,24.38],[82.774,24.642],[82.671,24.697],[82.539,24.648],[82.43,24.703],[82.416,24.591],[82.304,24.625],[82.216,24.794],[82.167,24.785],[81.903,24.892],[81.891,24.996],[81.804,25.002],[81.652,25.071],[81.588,25.166],[81.465,25.09],[81.335,25.169],[81.168,24.955],[80.861,24.929],[80.878,25.065],[80.827,25.121],[80.608,25.098],[80.531,25.001],[80.371,25.043],[80.432,25.178],[80.311,25.286],[80.288,25.417],[80.127,25.34],[80.033,25.342],[80.005,25.267],[79.853,25.225],[79.845,25.094],[79.749,25.14],[79.673,25.12],[79.56,25.17],[79.483,25.08],[79.405,25.106],[79.344,25.227],[79.283,25.117],[79.173,25.108],[79.071,25.17],[78.946,25.334],[78.936,25.52],[78.842,25.513],[78.602,25.409],[78.533,25.301],[78.653,25.051],[78.636,24.959],[78.77,24.859],[78.781,24.706],[78.752,24.6],[78.883,24.641],[78.986,24.442],[78.888,24.227],[78.789,24.177],[78.584,24.346],[78.502,24.39],[78.388,24.263],[78.341,24.402],[78.27,24.447],[78.277,24.663],[78.173,24.879],[78.334,24.995],[78.339,25.087],[78.407,25.129],[78.308,25.381],[78.431,25.474],[78.493,25.579],[78.658,25.56],[78.812,25.621],[78.763,25.72],[78.829,25.796],[78.994,26.146],[79.116,26.321],[79.126,26.411],[78.989,26.596],[79.008,26.664],[78.722,26.796],[78.576,26.749],[78.395,26.817],[78.361,26.869],[78.223,26.831],[78.107,26.791],[78.096,26.681],[78.001,26.695],[77.833,26.561],[77.745,26.538],[77.524,26.407],[77.438,26.403],[77.204,26.23],[77.116,26.22],[76.901,26.093],[76.791,25.943],[76.632,25.9],[76.53,25.811],[76.504,25.671],[76.516,25.528],[76.623,25.377],[76.778,25.315],[76.857,25.333],[76.958,25.284],[77.084,25.337],[77.209,25.306],[77.314,25.431],[77.412,25.224],[77.393,25.119],[77.298,25.086],[77.175,25.112],[77.123,25.067],[77,25.075],[76.876,25.042],[76.862,24.961],[76.95,24.869],[76.803,24.809],[76.856,24.742],[76.947,24.759],[77.065,24.644],[77.055,24.526],[76.978,24.461],[76.863,24.55],[76.832,24.358],[76.922,24.212],[76.901,24.127],[76.791,24.124],[76.676,24.191],[76.643,24.269],[76.505,24.203],[76.322,24.245],[76.117,24.194],[76.127,24.088],[75.999,24.021],[75.981,23.929],[75.584,23.795],[75.564,23.856],[75.462,23.914],[75.521,24.025],[75.702,23.967],[75.837,24.057],[75.751,24.143],[75.83,24.233],[75.74,24.332],[75.731,24.399],[75.909,24.455],[75.904,24.548],[75.836,24.728],[75.757,24.762],[75.646,24.685],[75.534,24.712],[75.455,24.681],[75.228,24.718],[75.216,24.802],[75.334,25.041],[75.198,25.033],[75.114,24.967],[75.117,24.878],[75.034,24.845],[74.826,24.901],[74.861,24.799],[74.972,24.763],[74.929,24.636],[74.772,24.661],[74.787,24.586],[74.727,24.489],[74.855,24.424],[74.781,24.338],[74.775,24.239],[74.868,24.243],[74.939,24.054],[74.904,23.853],[74.94,23.765],[74.937,23.629],[74.847,23.552],[74.701,23.504],[74.572,23.421],[74.515,23.316],[74.713,23.25],[74.528,23.098],[74.386,23.111],[74.324,23.061],[74.378,22.907],[74.461,22.908],[74.465,22.816],[74.379,22.635],[74.277,22.646],[74.133,22.52],[74.134,22.446],[74.244,22.434],[74.19,22.32],[74.071,22.361],[74.072,22.219],[74.122,22.195],[74.099,22.003],[74.147,21.953],[74.281,21.933],[74.384,22.017],[74.509,21.921],[74.513,21.719],[74.582,21.665],[74.819,21.609],[74.872,21.632],[75.052,21.566],[75.108,21.462],[75.316,21.388],[75.963,21.39],[76.096,21.371],[76.159,21.255],[76.173,21.09],[76.376,21.073],[76.492,21.194],[76.623,21.185],[76.663,21.276],[76.621,21.332],[76.786,21.465],[76.795,21.594],[76.902,21.597],[77.005,21.678],[77.13,21.722],[77.21,21.69],[77.281,21.759],[77.503,21.746],[77.573,21.617],[77.575,21.526],[77.455,21.554],[77.489,21.374],[77.822,21.407],[77.883,21.376],[78.082,21.445],[78.266,21.592],[78.419,21.58],[78.436,21.501],[78.585,21.487],[78.899,21.5],[78.914,21.589],[79.093,21.602],[79.221,21.693],[79.496,21.674],[79.512,21.584],[79.581,21.541],[79.738,21.604],[79.863,21.531],[79.998,21.533],[80.193,21.635],[80.27,21.616],[80.422,21.44],[80.621,21.32],[80.66,21.334],[80.735,21.46],[80.715,21.585],[80.741,21.745],[80.839,21.8],[80.848,21.931],[80.908,22.11],[81.022,22.133],[81.05,22.245],[81.119,22.291],[81.111,22.438],[81.232,22.452],[81.327,22.526],[81.428,22.48],[81.522,22.539],[81.6,22.535],[81.794,22.766],[81.776,22.874],[81.862,22.889],[81.95,22.983],[81.991,23.087],[82.126,23.104],[82.199,23.313],[82.103,23.398],[81.985,23.415],[81.923,23.533],[81.821,23.515],[81.725,23.557],[81.611,23.513],[81.658,23.916],[81.773,23.816],[82.008,23.862],[82.053,23.819],[82.181,23.836],[82.523,23.784],[82.635,23.838],[82.699,23.925],[82.81,23.963]]]},"properties":{"name":"Madhya Pradesh"}},
{"type":"Feature","geometry":{"type":"Polygon","coordinates":[[[84.765,19.077],[84.817,19.165],[85.102,19.411],[85.373,19.599],[85.679,19.745],[86.23,19.902],[86.373,19.958],[86.524,20.173],[86.783,20.33],[86.73,20.442],[86.775,20.521],[87.056,20.715],[86.976,20.772],[86.977,20.861],[86.852,21.097],[86.863,21.223],[86.945,21.353],[87.148,21.509],[87.359,21.542],[87.486,21.61],[87.444,21.768],[87.264,21.819],[87.236,21.957],[87.163,21.968],[87.099,21.866],[87.002,21.914],[87.028,22.038],[86.96,22.088],[86.722,22.147],[86.727,22.217],[86.504,22.343],[86.41,22.32],[86.269,22.442],[86.118,22.487],[86.045,22.568],[85.963,22.485],[86.018,22.426],[85.974,22.247],[86.031,22.19],[85.908,21.971],[85.784,21.984],[85.749,22.074],[85.599,22.078],[85.366,22.159],[85.252,22.027],[85.028,22.122],[85.117,22.294],[85.057,22.486],[84.915,22.426],[84.759,22.447],[84.508,22.421],[84.429,22.352],[84.291,22.343],[84.197,22.378],[84.141,22.474],[84.009,22.526],[84.047,22.438],[83.997,22.372],[83.864,22.343],[83.758,22.24],[83.627,22.204],[83.537,22.044],[83.606,21.914],[83.443,21.655],[83.383,21.62],[83.347,21.49],[83.399,21.405],[83.284,21.38],[83.217,21.255],[83.198,21.145],[83.131,21.106],[82.902,21.167],[82.64,21.155],[82.629,21.038],[82.56,20.947],[82.34,20.847],[82.377,20.632],[82.333,20.569],[82.438,20.434],[82.438,20.293],[82.391,20.162],[82.399,20.057],[82.597,19.99],[82.715,19.995],[82.707,19.835],[82.446,19.91],[82.345,19.836],[82.269,19.975],[82.184,19.984],[81.946,20.105],[81.871,20.044],[81.853,19.918],[82.066,19.791],[82.047,19.533],[82.171,19.437],[82.17,19.145],[82.218,19.097],[82.246,18.919],[82.176,18.903],[82.157,18.786],[81.961,18.689],[81.951,18.57],[81.77,18.419],[81.537,18.269],[81.483,17.977],[81.396,17.82],[81.617,17.823],[81.672,17.888],[81.808,17.956],[81.962,18.001],[82.006,18.057],[82.339,18.056],[82.343,18.281],[82.391,18.299],[82.38,18.433],[82.48,18.541],[82.605,18.382],[82.595,18.266],[82.773,18.341],[82.814,18.452],[82.965,18.36],[83.043,18.545],[82.999,18.609],[83.137,18.786],[83.216,18.747],[83.404,18.843],[83.309,19],[83.439,18.976],[83.583,19.059],[83.809,18.992],[83.851,18.859],[84.089,18.758],[84.224,18.8],[84.319,18.788],[84.436,18.922],[84.481,19.018],[84.58,19.031],[84.701,19.119],[84.765,19.077]]]},"properties":{"name":"Odisha"}},
{"type":"Feature","geometry":{"type":"Polygon","coordinates":[[[79.874,12.043],[80.046,12.313],[80.138,12.411],[80.255,12.781],[80.261,12.944],[80.347,13.313],[80.326,13.445],[80.268,13.564],[80.226,13.485],[80.008,13.478],[79.938,13.356],[79.731,13.283],[79.535,13.275],[79.432,13.197],[79.185,13.08],[79.163,13.02],[78.995,13.087],[78.813,13.089],[78.633,12.932],[78.592,12.783],[78.472,12.632],[78.371,12.627],[78.231,12.761],[78.077,12.84],[78.01,12.806],[77.922,12.885],[77.799,12.852],[77.74,12.673],[77.599,12.667],[77.587,12.515],[77.635,12.488],[77.617,12.368],[77.472,12.208],[77.728,12.182],[77.774,12.121],[77.676,11.952],[77.464,11.894],[77.45,11.796],[77.335,11.771],[77.294,11.809],[77.111,11.774],[77.013,11.815],[76.908,11.795],[76.835,11.656],[76.757,11.619],[76.56,11.623],[76.512,11.705],[76.431,11.666],[76.378,11.602],[76.265,11.594],[76.251,11.502],[76.548,11.359],[76.534,11.186],[76.629,11.194],[76.748,11.135],[76.659,10.931],[76.828,10.873],[76.904,10.762],[76.839,10.596],[76.83,10.303],[76.984,10.22],[77.176,10.359],[77.288,10.232],[77.273,9.964],[77.213,9.877],[77.233,9.769],[77.166,9.613],[77.365,9.553],[77.366,9.46],[77.283,9.301],[77.268,9.153],[77.147,9.021],[77.264,8.842],[77.177,8.725],[77.266,8.585],[77.168,8.333],[77.098,8.292],[77.331,8.127],[77.555,8.077],[77.583,8.137],[77.794,8.162],[77.891,8.27],[78.143,8.502],[78.139,8.68],[78.172,8.883],[78.22,8.966],[78.407,9.11],[78.657,9.158],[78.733,9.212],[79.067,9.298],[78.903,9.463],[78.927,9.585],[79.155,9.932],[79.255,10.045],[79.226,10.101],[79.269,10.234],[79.389,10.317],[79.517,10.313],[79.768,10.272],[79.859,10.282],[79.869,10.376],[79.841,10.828],[79.828,10.884],[79.725,10.929],[79.767,10.997],[79.854,10.983],[79.857,11.171],[79.807,11.444],[79.757,11.558],[79.796,11.785],[79.807,11.834],[79.808,11.836],[79.711,11.891],[79.841,11.956],[79.857,12.007],[79.874,12.043]]]},"properties":{"name":"Tamil Nadu"}},
{"type":"Feature","geometry":{"type":"Polygon","coordinates":[[[80.065,28.837],[80.03,28.749],[79.954,28.723],[79.829,28.885],[79.72,28.846],[79.425,28.868],[79.407,28.952],[79.212,29.028],[79.154,29.115],[79.039,29.158],[78.919,29.136],[78.871,29.227],[78.735,29.3],[78.912,29.394],[78.919,29.434],[78.706,29.503],[78.58,29.586],[78.514,29.723],[78.336,29.797],[78.204,29.737],[78.131,29.653],[78.015,29.587],[77.913,29.696],[77.83,29.668],[77.714,29.87],[77.798,30.084],[77.86,30.113],[77.937,30.249],[77.576,30.397],[77.586,30.38],[77.584,30.307],[77.405,30.089],[77.303,30.055],[77.122,29.751],[77.096,29.52],[77.161,29.332],[77.131,29.218],[77.233,28.919],[77.21,28.858],[77.199,28.798],[77.325,28.709],[77.298,28.58],[77.345,28.513],[77.478,28.419],[77.537,28.166],[77.474,28.087],[77.546,27.958],[77.284,27.801],[77.353,27.651],[77.34,27.527],[77.438,27.456],[77.44,27.39],[77.548,27.337],[77.658,27.17],[77.538,27.098],[77.661,26.971],[77.46,26.886],[77.398,26.83],[77.485,26.748],[77.558,26.818],[77.723,26.874],[77.761,26.933],[77.948,26.894],[78.094,26.903],[78.119,26.947],[78.272,26.919],[78.223,26.831],[78.361,26.869],[78.395,26.817],[78.576,26.749],[78.722,26.796],[79.008,26.664],[78.989,26.596],[79.126,26.411],[79.116,26.321],[78.994,26.146],[78.829,25.796],[78.763,25.72],[78.812,25.621],[78.658,25.56],[78.493,25.579],[78.431,25.474],[78.308,25.381],[78.407,25.129],[78.339,25.087],[78.334,24.995],[78.173,24.879],[78.277,24.663],[78.27,24.447],[78.341,24.402],[78.388,24.263],[78.502,24.39],[78.584,24.346],[78.789,24.177],[78.888,24.227],[78.986,24.442],[78.883,24.641],[78.752,24.6],[78.781,24.706],[78.77,24.859],[78.636,24.959],[78.653,25.051],[78.533,25.301],[78.602,25.409],[78.842,25.513],[78.936,25.52],[78.946,25.334],[79.071,25.17],[79.173,25.108],[79.283,25.117],[79.344,25.227],[79.405,25.106],[79.483,25.08],[79.56,25.17],[79.673,25.12],[79.749,25.14],[79.845,25.094],[79.853,25.225],[80.005,25.267],[80.033,25.342],[80.127,25.34],[80.288,25.417],[80.311,25.286],[80.432,25.178],[80.371,25.043],[80.531,25.001],[80.608,25.098],[80.827,25.121],[80.878,25.065],[80.861,24.929],[81.168,24.955],[81.335,25.169],[81.465,25.09],[81.588,25.166],[81.652,25.071],[81.804,25.002],[81.891,24.996],[81.903,24.892],[82.167,24.785],[82.216,24.794],[82.304,24.625],[82.416,24.591],[82.43,24.703],[82.539,24.648],[82.671,24.697],[82.774,24.642],[82.713,24.38],[82.771,24.328],[82.728,24.136],[82.81,23.963],[82.948,23.871],[83.141,23.885],[83.216,23.938],[83.33,24.102],[83.45,24.377],[83.402,24.503],[83.503,24.525],[83.542,24.613],[83.489,24.736],[83.398,24.778],[83.355,24.905],[83.366,25.195],[83.41,25.247],[83.808,25.409],[83.921,25.552],[84.081,25.636],[84.174,25.721],[84.223,25.662],[84.324,25.67],[84.365,25.742],[84.52,25.675],[84.625,25.792],[84.511,25.871],[84.207,26],[84.089,26.1],[84.026,26.204],[84.177,26.265],[84.177,26.371],[83.911,26.45],[83.917,26.517],[84.056,26.545],[84.087,26.639],[84.281,26.6],[84.33,26.684],[84.182,26.834],[84.052,26.906],[84.05,27.043],[83.948,27.113],[83.987,27.198],[83.912,27.246],[83.864,27.344],[83.615,27.469],[83.388,27.479],[83.36,27.344],[83.188,27.454],[83.035,27.449],[82.929,27.501],[82.735,27.503],[82.754,27.586],[82.699,27.722],[82.449,27.68],[82.07,27.923],[81.968,27.929],[81.9,27.854],[81.699,27.988],[81.478,28.083],[81.414,28.174],[81.321,28.197],[81.211,28.361],[81.017,28.416],[80.908,28.498],[80.54,28.69],[80.459,28.624],[80.378,28.629],[80.119,28.828],[80.065,28.837]]]},"properties":{"name":"Uttar Pradesh"}},
{"type":"Feature","geometry":{"type":"MultiPolygon","coordinates":[[[[88.777,21.869],[88.691,21.751],[88.789,21.654],[88.777,21.869]]],[[[88.746,27.142],[88.596,27.189],[88.431,27.079],[88.317,27.126],[88.154,27.11],[88.015,27.212],[87.992,27.108],[88.121,26.95],[88.187,26.771],[88.16,26.637],[88.105,26.551],[88.242,26.457],[88.283,26.378],[88.228,26.285],[87.981,26.139],[87.855,26.011],[87.831,25.871],[87.91,25.781],[88.05,25.702],[88.021,25.571],[87.866,25.497],[87.765,25.384],[87.853,25.29],[87.711,25.258],[87.779,25.251],[87.796,25.087],[87.958,24.971],[87.843,24.74],[87.917,24.666],[87.892,24.566],[87.816,24.501],[87.761,24.308],[87.532,24.107],[87.439,23.982],[87.245,24.045],[87.295,23.902],[87.123,23.796],[86.986,23.86],[86.889,23.844],[86.799,23.689],[86.713,23.699],[86.491,23.638],[86.368,23.541],[86.289,23.43],[86.148,23.465],[86.143,23.564],[86.042,23.586],[86.039,23.498],[85.876,23.481],[85.869,23.33],[85.82,23.268],[85.894,23.155],[86.044,23.145],[86.223,22.995],[86.501,22.995],[86.419,22.791],[86.482,22.729],[86.641,22.658],[86.659,22.576],[86.766,22.576],[86.846,22.4],[86.824,22.267],[86.727,22.217],[86.722,22.147],[86.96,22.088],[87.028,22.038],[87.002,21.914],[87.099,21.866],[87.163,21.968],[87.236,21.957],[87.264,21.819],[87.444,21.768],[87.486,21.61],[87.674,21.65],[87.806,21.709],[87.987,21.871],[88.06,22.018],[88.148,21.961],[88.212,21.783],[88.298,21.856],[88.435,21.911],[88.539,21.859],[88.633,21.955],[88.853,21.922],[89.064,21.94],[89.042,22.101],[89.065,22.207],[88.995,22.287],[89.001,22.429],[88.939,22.587],[88.963,22.693],[88.912,22.759],[88.964,22.82],[88.858,22.968],[88.942,23.206],[88.779,23.22],[88.719,23.255],[88.782,23.441],[88.593,23.617],[88.572,23.782],[88.733,23.911],[88.714,24.123],[88.741,24.254],[88.683,24.324],[88.559,24.308],[88.335,24.443],[88.124,24.517],[88.024,24.688],[88.226,24.96],[88.328,24.871],[88.453,25.037],[88.441,25.174],[88.712,25.208],[88.921,25.165],[88.962,25.208],[88.916,25.311],[88.824,25.401],[88.792,25.523],[88.663,25.474],[88.549,25.518],[88.267,25.782],[88.101,25.829],[88.093,25.93],[88.185,26.064],[88.177,26.148],[88.351,26.222],[88.348,26.282],[88.558,26.457],[88.819,26.295],[88.926,26.284],[88.926,26.432],[88.983,26.447],[89.089,26.366],[89.155,26.139],[89.36,26.008],[89.519,26.009],[89.72,26.166],[89.781,26.353],[89.869,26.454],[89.852,26.697],[89.764,26.699],[89.625,26.782],[89.37,26.857],[89.256,26.808],[89.127,26.807],[89.089,26.889],[88.948,26.967],[88.866,27.109],[88.746,27.142]]]]},"properties":{"name":"West Bengal"}},
{"type":"Feature","geometry":{"type":"Polygon","coordinates":[[[84.765,19.077],[84.701,19.119],[84.58,19.031],[84.481,19.018],[84.436,18.922],[84.319,18.788],[84.224,18.8],[84.089,18.758],[83.851,18.859],[83.809,18.992],[83.583,19.059],[83.439,18.976],[83.309,19],[83.404,18.843],[83.216,18.747],[83.137,18.786],[82.999,18.609],[83.043,18.545],[82.965,18.36],[82.814,18.452],[82.773,18.341],[82.595,18.266],[82.605,18.382],[82.48,18.541],[82.38,18.433],[82.391,18.299],[82.343,18.281],[82.339,18.056],[82.006,18.057],[81.962,18.001],[81.808,17.956],[81.672,17.888],[81.617,17.823],[81.396,17.82],[81.265,17.811],[81.166,17.858],[81.086,17.798],[81.041,17.748],[80.886,17.736],[80.855,17.602],[80.969,17.598],[81.02,17.52],[81.127,17.526],[81.148,17.464],[81.312,17.409],[81.274,17.317],[81.19,17.325],[81.174,17.23],[80.994,17.191],[80.919,17.22],[80.829,17.053],[80.58,17.153],[80.465,17.03],[80.602,16.919],[80.57,16.768],[80.322,16.88],[80.307,16.974],[80.17,17.017],[80.055,16.971],[79.999,16.865],[80.073,16.817],[80.055,16.745],[79.963,16.644],[79.793,16.726],[79.599,16.673],[79.419,16.58],[79.257,16.566],[79.221,16.514],[79.217,16.227],[79.01,16.24],[78.834,16.145],[78.84,16.078],[78.736,16.008],[78.627,16.088],[78.552,16.043],[78.408,16.075],[78.299,16.012],[78.175,15.858],[78.099,15.836],[77.888,15.906],[77.804,15.874],[77.513,15.927],[77.43,15.949],[77.185,15.957],[77.071,15.909],[77.03,15.635],[77.042,15.362],[77.152,15.276],[77.169,15.171],[77.113,15.034],[76.877,15.03],[76.8,15.096],[76.767,14.976],[76.87,14.938],[76.837,14.791],[76.765,14.602],[76.806,14.531],[76.901,14.489],[76.948,14.413],[76.94,14.245],[77.117,14.226],[77.136,14.337],[77.364,14.276],[77.482,14.292],[77.504,14.157],[77.394,14.174],[77.398,13.907],[77.307,14.032],[77.141,14.004],[76.973,14.084],[76.931,14.03],[77.042,13.933],[76.976,13.817],[77.065,13.744],[77.257,13.847],[77.433,13.843],[77.465,13.711],[77.534,13.707],[77.651,13.784],[77.782,13.818],[77.896,13.941],[77.992,13.869],[78.115,13.863],[78.114,13.657],[78.19,13.59],[78.385,13.592],[78.378,13.363],[78.401,13.316],[78.556,13.284],[78.567,13.193],[78.389,12.907],[78.252,12.861],[78.231,12.761],[78.371,12.627],[78.472,12.632],[78.592,12.783],[78.633,12.932],[78.813,13.089],[78.995,13.087],[79.163,13.02],[79.185,13.08],[79.432,13.197],[79.535,13.275],[79.731,13.283],[79.938,13.356],[80.008,13.478],[80.226,13.485],[80.268,13.564],[80.235,13.706],[80.254,13.79],[80.152,14.026],[80.127,14.15],[80.196,14.587],[80.11,14.739],[80.047,15.081],[80.085,15.27],[80.206,15.473],[80.289,15.694],[80.429,15.805],[80.686,15.882],[80.774,15.868],[80.844,15.707],[81.009,15.755],[81.015,15.851],[81.148,15.974],[81.214,16.208],[81.265,16.279],[81.392,16.343],[81.487,16.355],[81.721,16.307],[81.956,16.396],[82.233,16.542],[82.299,16.556],[82.355,16.851],[82.248,16.905],[82.319,17.057],[82.456,17.185],[82.726,17.355],[83.162,17.56],[83.347,17.726],[83.418,17.854],[83.569,18.01],[83.75,18.129],[84.072,18.277],[84.148,18.374],[84.355,18.555],[84.604,18.89],[84.765,19.077]]]},"properties":{"name":"Andhra Pradesh"}},
{"type":"Feature","geometry":{"type":"MultiPolygon","coordinates":[[[[79.854,10.983],[79.767,10.997],[79.725,10.929],[79.828,10.884],[79.841,10.828],[79.854,10.983]]],[[[79.841,11.956],[79.711,11.891],[79.808,11.836],[79.841,11.956]]]]},"properties":{"name":"Puducherry"}},
{"type":"Feature","geometry":{"type":"Polygon","coordinates":[[[80.66,21.334],[80.621,21.32],[80.422,21.44],[80.27,21.616],[80.193,21.635],[79.998,21.533],[79.863,21.531],[79.738,21.604],[79.581,21.541],[79.512,21.584],[79.496,21.674],[79.221,21.693],[79.093,21.602],[78.914,21.589],[78.899,21.5],[78.585,21.487],[78.436,21.501],[78.419,21.58],[78.266,21.592],[78.082,21.445],[77.883,21.376],[77.822,21.407],[77.489,21.374],[77.455,21.554],[77.575,21.526],[77.573,21.617],[77.503,21.746],[77.281,21.759],[77.21,21.69],[77.13,21.722],[77.005,21.678],[76.902,21.597],[76.795,21.594],[76.786,21.465],[76.621,21.332],[76.663,21.276],[76.623,21.185],[76.492,21.194],[76.376,21.073],[76.173,21.09],[76.159,21.255],[76.096,21.371],[75.963,21.39],[75.316,21.388],[75.108,21.462],[75.052,21.566],[74.872,21.632],[74.819,21.609],[74.582,21.665],[74.513,21.719],[74.509,21.921],[74.384,22.017],[74.281,21.933],[74.147,21.953],[73.873,21.842],[73.824,21.761],[73.888,21.653],[73.814,21.601],[73.846,21.508],[73.85,21.503],[73.863,21.499],[73.863,21.498],[73.864,21.498],[73.865,21.499],[73.864,21.5],[73.873,21.506],[73.864,21.512],[73.869,21.513],[73.869,21.511],[73.873,21.511],[73.873,21.51],[73.905,21.516],[73.905,21.519],[73.904,21.524],[73.921,21.52],[73.921,21.523],[73.929,21.523],[73.929,21.52],[73.932,21.513],[73.932,21.512],[73.94,21.514],[73.94,21.515],[73.951,21.512],[73.951,21.513],[73.952,21.513],[73.951,21.515],[73.952,21.517],[73.952,21.518],[73.955,21.52],[73.954,21.524],[73.956,21.525],[73.954,21.534],[73.955,21.535],[73.955,21.54],[73.982,21.522],[73.974,21.537],[73.974,21.538],[73.974,21.539],[73.974,21.543],[73.993,21.542],[73.993,21.541],[73.996,21.539],[73.995,21.539],[73.995,21.538],[74.002,21.542],[74,21.545],[74.011,21.549],[74.01,21.549],[74.035,21.546],[74.034,21.548],[74.038,21.551],[74.038,21.549],[74.038,21.545],[74.037,21.545],[74.043,21.545],[74.043,21.546],[74.048,21.545],[74.047,21.545],[74.049,21.544],[74.049,21.545],[74.051,21.545],[74.05,21.548],[74.053,21.547],[74.053,21.548],[74.055,21.55],[74.054,21.559],[74.082,21.549],[74.161,21.469],[73.944,21.4],[73.942,21.299],[73.827,21.268],[73.816,21.174],[73.702,21.154],[73.675,21.153],[73.676,21.153],[73.664,21.152],[73.665,21.147],[73.627,21.143],[73.63,21.151],[73.63,21.152],[73.63,21.153],[73.607,21.161],[73.607,21.162],[73.607,21.163],[73.606,21.172],[73.607,21.179],[73.577,21.171],[73.583,21.161],[73.577,21.156],[73.617,21.143],[73.612,21.138],[73.703,21.118],[73.901,20.982],[73.944,20.824],[73.838,20.621],[73.652,20.564],[73.6,20.637],[73.444,20.681],[73.468,20.496],[73.404,20.386],[73.417,20.198],[73.299,20.209],[73.211,20.12],[73.179,20.047],[72.974,20.158],[72.963,20.182],[72.961,20.206],[72.961,20.209],[72.962,20.209],[72.899,20.228],[72.87,20.228],[72.737,20.135],[72.655,19.836],[72.748,19.647],[72.716,19.592],[72.758,19.376],[72.8,19.33],[72.776,19.225],[72.827,19.092],[72.804,18.903],[72.868,18.8],[72.856,18.699],[72.924,18.546],[72.912,18.368],[72.97,18.3],[72.945,18.223],[73.094,17.841],[73.138,17.556],[73.194,17.465],[73.291,17.078],[73.277,16.892],[73.351,16.613],[73.314,16.541],[73.438,16.203],[73.51,15.937],[73.589,15.91],[73.675,15.727],[73.939,15.743],[73.991,15.611],[74.118,15.652],[74.162,15.751],[74.308,15.749],[74.368,15.786],[74.387,15.905],[74.483,16.09],[74.503,16.225],[74.351,16.275],[74.333,16.455],[74.397,16.583],[74.545,16.635],[74.569,16.554],[74.688,16.618],[74.689,16.686],[74.772,16.751],[74.92,16.772],[74.91,16.835],[74.993,16.952],[75.089,16.952],[75.182,16.843],[75.265,16.863],[75.28,16.957],[75.466,16.988],[75.666,16.98],[75.672,17.116],[75.628,17.163],[75.654,17.274],[75.604,17.306],[75.633,17.477],[75.806,17.368],[75.894,17.401],[75.931,17.323],[76.119,17.371],[76.363,17.378],[76.331,17.597],[76.42,17.604],[76.487,17.715],[76.561,17.765],[76.691,17.681],[76.775,17.878],[76.919,17.916],[76.921,18.118],[76.952,18.188],[77.14,18.208],[77.242,18.413],[77.336,18.45],[77.414,18.393],[77.409,18.301],[77.551,18.292],[77.526,18.342],[77.596,18.549],[77.739,18.557],[77.84,18.805],[77.843,18.909],[77.8,19.051],[77.871,19.255],[77.945,19.342],[78.056,19.237],[78.175,19.238],[78.172,19.36],[78.212,19.428],[78.304,19.456],[78.276,19.692],[78.343,19.713],[78.423,19.818],[78.552,19.824],[78.841,19.762],[78.86,19.689],[78.956,19.656],[78.94,19.552],[79.046,19.548],[79.204,19.494],[79.273,19.599],[79.498,19.506],[79.603,19.515],[79.629,19.574],[79.743,19.609],[79.945,19.47],[79.972,19.416],[79.946,19.17],[79.858,19.102],[79.937,19.043],[79.962,18.867],[80.019,18.77],[80.118,18.681],[80.273,18.723],[80.35,18.848],[80.271,18.938],[80.388,19.18],[80.483,19.338],[80.581,19.398],[80.613,19.309],[80.757,19.29],[80.846,19.355],[80.895,19.52],[80.715,19.617],[80.676,19.699],[80.586,19.741],[80.546,19.818],[80.469,19.827],[80.539,19.952],[80.552,20.118],[80.389,20.165],[80.395,20.245],[80.626,20.336],[80.612,20.601],[80.549,20.796],[80.542,20.924],[80.464,20.929],[80.439,21.096],[80.464,21.175],[80.644,21.251],[80.66,21.334]]]},"properties":{"name":"Maharashtra"}},
{"type":"Feature","geometry":{"type":"Polygon","coordinates":[[[72.821,20.368],[72.857,20.419],[72.856,20.467],[72.821,20.368]]]},"properties":{"name":"Daman & Diu"}},
{"type":"Feature","geometry":{"type":"Polygon","coordinates":[[[73.211,20.12],[73.133,20.206],[73.132,20.274],[72.937,20.295],[72.912,20.269],[72.954,20.237],[72.966,20.225],[72.964,20.21],[72.962,20.209],[72.961,20.209],[72.961,20.206],[72.963,20.182],[72.974,20.158],[73.179,20.047],[73.211,20.12]]]},"properties":{"name":"Dadra & Nagar Haveli"}},
{"type":"Feature","geometry":{"type":"Polygon","coordinates":[[[78.399,32.526],[78.448,32.574],[78.661,32.654],[78.761,32.655],[78.826,32.438],[78.96,32.366],[79.114,32.384],[79.319,32.593],[79.447,32.532],[79.625,32.737],[79.463,32.92],[79.339,33.018],[79.445,33.206],[79.446,33.265],[79.239,33.298],[79.096,33.294],[78.988,33.333],[78.932,33.433],[78.915,33.632],[79.064,33.627],[79.09,33.687],[78.904,33.972],[79.021,34.051],[79.15,34.068],[79.397,34.027],[79.59,34.282],[79.507,34.474],[79.792,34.485],[79.771,34.62],[79.859,34.688],[80.067,34.714],[80.072,34.828],[80.173,35.002],[80.182,35.166],[80.224,35.22],[80.327,35.472],[80.29,35.607],[80.106,35.68],[79.998,35.837],[79.869,35.783],[79.744,35.8],[79.421,35.896],[79.383,35.994],[79.24,35.986],[79.131,35.836],[78.959,35.892],[78.822,35.855],[78.663,35.857],[78.52,35.763],[78.272,35.721],[78.198,35.669],[78.136,35.538],[78.041,35.587],[77.921,35.494],[77.817,35.512],[77.722,35.475],[77.511,35.488],[77.437,35.641],[77.357,35.717],[77.227,35.712],[77.114,35.797],[76.934,35.784],[76.811,35.844],[76.722,35.953],[76.801,36.047],[76.481,36.211],[76.351,36.359],[76.254,36.347],[76.076,36.474],[75.922,36.502],[75.747,36.588],[75.615,36.761],[75.473,36.81],[75.427,36.95],[75.264,37.051],[75.095,36.942],[75.018,36.976],[74.91,36.912],[74.839,37.022],[74.712,37.074],[74.429,36.989],[74.26,36.886],[74.055,36.806],[73.937,36.873],[73.689,36.911],[73.743,36.833],[73.861,36.788],[73.808,36.716],[73.7,36.684],[73.441,36.744],[73.314,36.706],[73.202,36.715],[72.991,36.457],[72.778,36.309],[72.596,36.264],[72.53,36.074],[72.595,36.027],[72.538,35.914],[72.69,35.832],[72.901,35.881],[73.153,35.841],[73.136,35.719],[73.406,35.563],[73.635,35.571],[73.784,35.525],[73.794,35.46],[73.699,35.323],[73.777,35.243],[74.08,35.154],[74.133,35.107],[74.253,35.037],[74.38,35.058],[74.473,35.116],[74.587,35.01],[74.553,34.773],[74.733,34.671],[74.925,34.663],[75.021,34.626],[75.175,34.646],[75.341,34.553],[75.32,34.435],[75.413,34.283],[75.687,34.159],[75.852,33.981],[76.022,33.997],[76.048,33.929],[76.271,33.731],[76.302,33.567],[76.502,33.516],[76.771,33.25],[76.834,33.205],[76.933,33.028],[77.15,32.978],[77.164,32.919],[77.339,32.817],[77.469,32.858],[77.602,32.943],[77.731,32.974],[77.792,32.856],[77.926,32.772],[77.919,32.691],[78.016,32.62],[78.143,32.682],[78.219,32.665],[78.388,32.757],[78.399,32.526]]]},"properties":{"name":"Ladakh"}},
{"type":"Feature","geometry":{"type":"Polygon","coordinates":[[[76.771,33.25],[76.502,33.516],[76.302,33.567],[76.271,33.731],[76.048,33.929],[76.022,33.997],[75.852,33.981],[75.687,34.159],[75.413,34.283],[75.32,34.435],[75.341,34.553],[75.175,34.646],[75.021,34.626],[74.925,34.663],[74.733,34.671],[74.553,34.773],[74.587,35.01],[74.473,35.116],[74.38,35.058],[74.253,35.037],[74.133,35.107],[74.066,35.048],[74.073,34.939],[73.964,34.841],[73.773,34.796],[73.618,34.586],[73.442,34.565],[73.408,34.386],[73.487,34.188],[73.516,34],[73.589,33.884],[73.562,33.675],[73.62,33.574],[73.617,33.452],[73.564,33.394],[73.605,33.251],[73.657,33.208],[73.625,33.112],[73.829,33.007],[73.957,32.987],[74.059,32.909],[74.177,32.883],[74.384,32.758],[74.46,32.789],[74.655,32.728],[74.681,32.492],[74.82,32.499],[74.947,32.447],[75.027,32.496],[75.332,32.327],[75.48,32.334],[75.687,32.391],[75.834,32.512],[75.916,32.613],[75.925,32.748],[75.811,32.878],[75.954,32.873],[76.099,32.966],[76.247,33.022],[76.292,33.103],[76.41,33.186],[76.567,33.21],[76.747,33.179],[76.771,33.25]]]},"properties":{"name":"Jammu & Kashmir"}}
]}